{"type":"FeatureCollection","name":"Buffer_500m_WGS84","features":[{"type":"Feature","properties":{"name":"500m buffer"},"geometry":{"type":"Polygon","coordinates":[[[107.49577,13.00433],[107.49584,13.0043],[107.49598,13.0043],[107.49617,13.00429],[107.49635,13.00428],[107.49653,13.00425],[107.49671,13.00423],[107.4969,13.00419],[107.49707,13.00415],[107.49725,13.0041],[107.49743,13.00404],[107.49747,13.00403],[107.49845,13.00368],[107.49858,13.00363],[107.49875,13.00356],[107.49891,13.00348],[107.49908,13.0034],[107.49916,13.00335],[107.49999,13.00288],[107.50006,13.00284],[107.50022,13.00274],[107.50037,13.00264],[107.50052,13.00253],[107.50066,13.00242],[107.5008,13.0023],[107.50086,13.00224],[107.50151,13.00164],[107.50158,13.00157],[107.50171,13.00144],[107.50183,13.00131],[107.50195,13.00117],[107.50206,13.00103],[107.50217,13.00088],[107.50227,13.00072],[107.50236,13.00057],[107.50245,13.00041],[107.50253,13.00025],[107.5026,13.00008],[107.50267,12.99991],[107.50273,12.99974],[107.50278,12.99957],[107.50282,12.99943],[107.50304,12.99854],[107.50305,12.99851],[107.50308,12.99833],[107.50312,12.99815],[107.50314,12.99797],[107.50316,12.99779],[107.50317,12.99761],[107.50317,12.99743],[107.50317,12.99735],[107.50313,12.9961],[107.50313,12.99601],[107.50311,12.99583],[107.5031,12.9957],[107.50298,12.99471],[107.50297,12.99465],[107.50294,12.99448],[107.50291,12.9943],[107.5029,12.99425],[107.50277,12.99369],[107.50268,12.99276],[107.50266,12.99261],[107.50263,12.99243],[107.5026,12.99226],[107.50257,12.99211],[107.50219,12.99063],[107.50218,12.9906],[107.50213,12.99043],[107.50208,12.99026],[107.50202,12.99009],[107.50195,12.98992],[107.50187,12.98976],[107.50178,12.98959],[107.50174,12.98951],[107.50138,12.98889],[107.50124,12.9885],[107.50102,12.98789],[107.50102,12.98787],[107.50103,12.98784],[107.50108,12.98766],[107.50112,12.98749],[107.50115,12.98731],[107.50116,12.98722],[107.50121,12.98687],[107.50129,12.98674],[107.50137,12.98658],[107.50145,12.98641],[107.50153,12.98625],[107.5016,12.98608],[107.50165,12.98591],[107.50171,12.98573],[107.50172,12.98568],[107.50203,12.98455],[107.50203,12.98454],[107.50203,12.98453],[107.5021,12.98448],[107.50224,12.98437],[107.50237,12.98424],[107.5025,12.98411],[107.50262,12.98398],[107.50274,12.98384],[107.50285,12.98369],[107.50291,12.98361],[107.50337,12.98296],[107.50342,12.98289],[107.50352,12.98274],[107.50361,12.98258],[107.50366,12.98249],[107.5037,12.98247],[107.50376,12.98244],[107.50466,12.98204],[107.50476,12.98199],[107.50493,12.9819],[107.50497,12.98188],[107.50547,12.9816],[107.50558,12.98154],[107.50574,12.98144],[107.50589,12.98134],[107.50604,12.98123],[107.50618,12.98112],[107.50632,12.981],[107.50645,12.98088],[107.50658,12.98075],[107.50671,12.98061],[107.50682,12.98047],[107.50688,12.9804],[107.50731,12.97985],[107.50736,12.97978],[107.50747,12.97963],[107.50757,12.97948],[107.50766,12.97932],[107.50775,12.97916],[107.50776,12.97914],[107.50846,12.97776],[107.50853,12.97762],[107.5086,12.97746],[107.50867,12.97729],[107.50873,12.97712],[107.50878,12.97695],[107.50883,12.97677],[107.50887,12.97659],[107.5089,12.97642],[107.50892,12.97624],[107.50894,12.97606],[107.50895,12.97588],[107.50895,12.9757],[107.50895,12.97551],[107.50893,12.97533],[107.50891,12.97515],[107.50888,12.97498],[107.50887,12.97487],[107.50879,12.97448],[107.50877,12.97441],[107.50873,12.97423],[107.50868,12.97406],[107.50862,12.97388],[107.50856,12.97371],[107.50849,12.97355],[107.50841,12.97338],[107.50833,12.97322],[107.50831,12.97319],[107.50802,12.97267],[107.50795,12.97254],[107.50786,12.97239],[107.50775,12.97224],[107.50764,12.97209],[107.50753,12.97195],[107.50741,12.97181],[107.50728,12.97168],[107.50718,12.97158],[107.50672,12.97114],[107.50671,12.97113],[107.50628,12.97073],[107.50626,12.97071],[107.50612,12.97058],[107.50598,12.97047],[107.50584,12.97036],[107.50569,12.97025],[107.50553,12.97015],[107.50537,12.97006],[107.50521,12.96997],[107.50505,12.96989],[107.5049,12.96983],[107.50367,12.96931],[107.50365,12.9693],[107.50348,12.96923],[107.50331,12.96917],[107.50313,12.96912],[107.50295,12.96907],[107.5029,12.96906],[107.50184,12.96882],[107.50172,12.9688],[107.50154,12.96876],[107.50136,12.96874],[107.50117,12.96872],[107.50101,12.96871],[107.4997,12.96865],[107.49968,12.96865],[107.49949,12.96865],[107.49931,12.96865],[107.49912,12.96866],[107.4991,12.96866],[107.4981,12.96875],[107.49794,12.96876],[107.49776,12.96879],[107.49758,12.96882],[107.4974,12.96886],[107.49722,12.96891],[107.49705,12.96896],[107.497,12.96898],[107.49637,12.96919],[107.49604,12.96924],[107.49602,12.96923],[107.49584,12.96919],[107.49575,12.96917],[107.49453,12.96896],[107.49375,12.96864],[107.49385,12.96854],[107.49397,12.96841],[107.49409,12.96827],[107.4942,12.96812],[107.4943,12.96798],[107.4944,12.96782],[107.4945,12.96767],[107.49458,12.96751],[107.49466,12.96734],[107.49474,12.96718],[107.4948,12.96701],[107.49486,12.96684],[107.49492,12.96667],[107.49496,12.96649],[107.495,12.96631],[107.49503,12.96614],[107.49506,12.96596],[107.49507,12.96578],[107.49508,12.9656],[107.49508,12.96542],[107.49508,12.96524],[107.49506,12.96505],[107.49504,12.96488],[107.49503,12.96477],[107.49489,12.96386],[107.49487,12.96378],[107.49484,12.9636],[107.4948,12.96342],[107.49475,12.96325],[107.49469,12.96308],[107.49463,12.96291],[107.49456,12.96274],[107.49448,12.96258],[107.4944,12.96242],[107.49431,12.96226],[107.49421,12.9621],[107.49411,12.96195],[107.494,12.96181],[107.49389,12.96167],[107.49379,12.96156],[107.49281,12.96047],[107.49279,12.96044],[107.49266,12.96031],[107.49253,12.96018],[107.4924,12.96006],[107.49226,12.95994],[107.49212,12.95984],[107.49145,12.95935],[107.49133,12.95876],[107.4912,12.95813],[107.49135,12.95792],[107.49137,12.95788],[107.49147,12.95773],[107.49157,12.95758],[107.49165,12.95742],[107.49173,12.95725],[107.49181,12.95709],[107.49187,12.95692],[107.49193,12.95675],[107.49199,12.95658],[107.49203,12.9564],[107.49207,12.95622],[107.4921,12.95605],[107.49213,12.95587],[107.49214,12.95569],[107.49215,12.95551],[107.49215,12.95532],[107.49215,12.95514],[107.49214,12.95496],[107.49212,12.95478],[107.49209,12.95461],[107.49205,12.95443],[107.49201,12.95425],[107.49197,12.95411],[107.49176,12.95339],[107.49175,12.95336],[107.49169,12.95318],[107.49163,12.95301],[107.4916,12.95295],[107.49206,12.95202],[107.49209,12.95195],[107.49216,12.9518],[107.49236,12.9513],[107.49237,12.95129],[107.49244,12.95112],[107.4925,12.95095],[107.49255,12.95078],[107.4926,12.9506],[107.49263,12.95043],[107.49266,12.95025],[107.49269,12.95007],[107.49271,12.94989],[107.49271,12.94971],[107.49272,12.94953],[107.49271,12.94935],[107.4927,12.94917],[107.49268,12.94899],[107.49265,12.94881],[107.49262,12.94863],[107.49257,12.94845],[107.49252,12.94828],[107.49247,12.94811],[107.49241,12.94794],[107.49234,12.94777],[107.49226,12.94761],[107.49217,12.94744],[107.49208,12.94729],[107.49199,12.94713],[107.49189,12.94698],[107.49178,12.94684],[107.49166,12.9467],[107.49154,12.94656],[107.49142,12.94643],[107.49129,12.9463],[107.49115,12.94618],[107.49101,12.94606],[107.49086,12.94595],[107.49078,12.94589],[107.49087,12.94582],[107.49102,12.9457],[107.49115,12.94558],[107.49129,12.94546],[107.49142,12.94533],[107.49154,12.9452],[107.49166,12.94506],[107.49177,12.94491],[107.49187,12.94476],[107.49197,12.94461],[107.492,12.94456],[107.49213,12.94447],[107.49218,12.94444],[107.49338,12.94358],[107.49348,12.9435],[107.49363,12.94339],[107.49377,12.94327],[107.4939,12.94315],[107.49403,12.94302],[107.49415,12.94288],[107.49427,12.94274],[107.49438,12.9426],[107.49443,12.94253],[107.49481,12.942],[107.49499,12.94192],[107.49502,12.94191],[107.49519,12.94183],[107.49535,12.94174],[107.49551,12.94166],[107.49567,12.94156],[107.49582,12.94146],[107.49597,12.94135],[107.49611,12.94124],[107.49625,12.94112],[107.49638,12.94099],[107.49651,12.94086],[107.49664,12.94073],[107.49666,12.9407],[107.49734,12.93991],[107.49744,12.93979],[107.49755,12.93965],[107.49766,12.9395],[107.49776,12.93935],[107.49785,12.93919],[107.49794,12.93903],[107.49802,12.93887],[107.49809,12.93871],[107.49816,12.93854],[107.49822,12.93837],[107.49827,12.93819],[107.49832,12.93802],[107.49835,12.93784],[107.49839,12.93766],[107.49841,12.93748],[107.49843,12.9373],[107.49844,12.93712],[107.49844,12.93694],[107.49843,12.93676],[107.49843,12.93673],[107.49838,12.93586],[107.49837,12.93571],[107.49835,12.93553],[107.49832,12.93535],[107.49829,12.93517],[107.49824,12.935],[107.4982,12.93482],[107.49814,12.93466],[107.49825,12.9346],[107.4984,12.93449],[107.49855,12.93439],[107.4987,12.93427],[107.49883,12.93415],[107.49897,12.93403],[107.4991,12.9339],[107.49922,12.93376],[107.49934,12.93362],[107.49945,12.93348],[107.49955,12.93333],[107.49965,12.93318],[107.49975,12.93302],[107.49983,12.93286],[107.49991,12.9327],[107.49999,12.93254],[107.50005,12.93237],[107.50006,12.93235],[107.50034,12.93159],[107.50039,12.93144],[107.50044,12.93127],[107.50049,12.93109],[107.50053,12.93091],[107.50056,12.93074],[107.50058,12.93056],[107.5006,12.93038],[107.50061,12.9302],[107.50061,12.93001],[107.50061,12.92983],[107.50059,12.92965],[107.50057,12.92947],[107.50055,12.9293],[107.50051,12.92912],[107.50047,12.92894],[107.50042,12.92877],[107.50036,12.9286],[107.5003,12.92843],[107.50023,12.92826],[107.50015,12.92809],[107.50007,12.92793],[107.49998,12.92778],[107.49988,12.92762],[107.49978,12.92747],[107.49967,12.92732],[107.49956,12.92718],[107.49944,12.92705],[107.49931,12.92691],[107.49918,12.92679],[107.49904,12.92666],[107.49897,12.9266],[107.49898,12.92659],[107.49922,12.92635],[107.49932,12.92624],[107.49945,12.92611],[107.49956,12.92597],[107.49968,12.92582],[107.49978,12.92568],[107.49988,12.92552],[107.49997,12.92537],[107.50006,12.92521],[107.50014,12.92505],[107.50022,12.92488],[107.50028,12.92471],[107.50034,12.92454],[107.50039,12.92437],[107.50044,12.92419],[107.50048,12.92402],[107.50051,12.92384],[107.50053,12.92366],[107.50055,12.92348],[107.50056,12.9233],[107.50056,12.92312],[107.50056,12.92294],[107.50054,12.92276],[107.50052,12.92258],[107.5005,12.9224],[107.50046,12.92222],[107.50045,12.92216],[107.50124,12.92179],[107.5013,12.92177],[107.50199,12.9217],[107.50202,12.9217],[107.5022,12.92168],[107.50238,12.92165],[107.50256,12.92161],[107.50274,12.92157],[107.50292,12.92152],[107.50309,12.92146],[107.50327,12.9214],[107.50344,12.92133],[107.5036,12.92125],[107.50377,12.92117],[107.50393,12.92108],[107.50408,12.92098],[107.50424,12.92088],[107.50438,12.92077],[107.50453,12.92066],[107.5046,12.9206],[107.50538,12.91992],[107.50544,12.91987],[107.50558,12.91974],[107.50571,12.91961],[107.50583,12.91948],[107.50595,12.91934],[107.50606,12.9192],[107.50616,12.91905],[107.50626,12.9189],[107.50636,12.91874],[107.50644,12.91858],[107.50652,12.91842],[107.5066,12.91825],[107.50666,12.91808],[107.50672,12.91791],[107.50678,12.91774],[107.50682,12.91756],[107.50686,12.91739],[107.50689,12.91721],[107.50692,12.91703],[107.50693,12.91685],[107.50694,12.91667],[107.50694,12.91649],[107.50694,12.91631],[107.50693,12.91613],[107.5069,12.91595],[107.50688,12.91577],[107.50684,12.91559],[107.5068,12.91542],[107.50675,12.91524],[107.5067,12.91507],[107.50663,12.9149],[107.50656,12.91473],[107.50649,12.91457],[107.50646,12.91451],[107.506,12.91361],[107.50594,12.9135],[107.50585,12.91335],[107.50576,12.91319],[107.50565,12.91304],[107.50555,12.91291],[107.50508,12.91229],[107.50475,12.91175],[107.50423,12.91065],[107.5042,12.9106],[107.50412,12.91044],[107.50403,12.91028],[107.504,12.91024],[107.50334,12.90916],[107.50327,12.90905],[107.50317,12.9089],[107.50306,12.90875],[107.50295,12.90861],[107.50283,12.90847],[107.5027,12.90834],[107.50257,12.90821],[107.50243,12.90809],[107.50229,12.90797],[107.50215,12.90786],[107.502,12.90776],[107.50184,12.90766],[107.50169,12.90757],[107.50152,12.90748],[107.50136,12.9074],[107.50122,12.90734],[107.50123,12.90731],[107.5013,12.90714],[107.50136,12.90697],[107.50141,12.9068],[107.50146,12.90662],[107.5015,12.90644],[107.50153,12.90627],[107.50155,12.90609],[107.50157,12.90591],[107.50158,12.90573],[107.50158,12.90558],[107.50158,12.90453],[107.50158,12.9045],[107.50157,12.90432],[107.50156,12.90414],[107.50154,12.90396],[107.50151,12.90378],[107.50148,12.9036],[107.50143,12.90342],[107.50139,12.90325],[107.50133,12.90308],[107.50127,12.90291],[107.5012,12.90274],[107.50112,12.90258],[107.50104,12.90243],[107.50082,12.90202],[107.50082,12.90201],[107.50073,12.90185],[107.50063,12.9017],[107.50062,12.90156],[107.50059,12.90138],[107.50056,12.90121],[107.50051,12.90103],[107.50046,12.90085],[107.50041,12.90068],[107.50035,12.90051],[107.50028,12.90035],[107.5002,12.90018],[107.50011,12.90002],[107.50002,12.89986],[107.49993,12.89971],[107.49983,12.89956],[107.49972,12.89941],[107.4996,12.89927],[107.49948,12.89913],[107.49936,12.899],[107.49923,12.89887],[107.49909,12.89875],[107.49895,12.89864],[107.49799,12.89787],[107.49792,12.89782],[107.49805,12.89776],[107.49821,12.89768],[107.49838,12.8976],[107.49854,12.89751],[107.49869,12.89741],[107.49884,12.89731],[107.49887,12.89729],[107.49915,12.8971],[107.49926,12.89701],[107.49941,12.8969],[107.49954,12.89678],[107.49968,12.89665],[107.49981,12.89652],[107.49993,12.89639],[107.50005,12.89625],[107.50016,12.89611],[107.50026,12.89596],[107.50036,12.89581],[107.50046,12.89565],[107.50054,12.89549],[107.50059,12.8954],[107.50088,12.89481],[107.50091,12.89474],[107.50098,12.89458],[107.50105,12.89441],[107.50111,12.89424],[107.50116,12.89406],[107.50121,12.89389],[107.50123,12.89379],[107.50146,12.8927],[107.50161,12.89225],[107.50166,12.89209],[107.50171,12.89191],[107.50175,12.89174],[107.50178,12.89156],[107.5018,12.89138],[107.5018,12.89136],[107.50198,12.8897],[107.502,12.88954],[107.502,12.88948],[107.50207,12.8883],[107.50214,12.8872],[107.50242,12.88522],[107.50243,12.88511],[107.50245,12.88493],[107.50255,12.88348],[107.50297,12.88108],[107.50298,12.88102],[107.50307,12.88047],[107.50315,12.88039],[107.50391,12.87967],[107.50394,12.87964],[107.50397,12.87961],[107.50499,12.87861],[107.50509,12.87851],[107.50521,12.87837],[107.50533,12.87823],[107.50544,12.87809],[107.50555,12.87794],[107.50565,12.87779],[107.50572,12.87766],[107.50603,12.87714],[107.50664,12.87625],[107.50665,12.87623],[107.50675,12.87608],[107.50684,12.87593],[107.50715,12.8754],[107.50774,12.87494],[107.50803,12.87477],[107.5081,12.87476],[107.50862,12.87474],[107.50923,12.87476],[107.51,12.87482],[107.51013,12.87483],[107.51031,12.87484],[107.51049,12.87484],[107.51068,12.87483],[107.51086,12.87482],[107.51104,12.8748],[107.51123,12.87477],[107.51141,12.87473],[107.51159,12.87469],[107.51176,12.87464],[107.51194,12.87458],[107.51211,12.87452],[107.51228,12.87445],[107.51245,12.87437],[107.51261,12.87429],[107.51277,12.8742],[107.51293,12.8741],[107.51308,12.874],[107.51323,12.87389],[107.51336,12.87379],[107.51439,12.87294],[107.5144,12.87293],[107.51453,12.87282],[107.51467,12.87269],[107.5148,12.87256],[107.51492,12.87243],[107.51504,12.87229],[107.51515,12.87214],[107.51525,12.872],[107.51535,12.87184],[107.51545,12.87169],[107.51553,12.87153],[107.51561,12.87137],[107.51562,12.87136],[107.51602,12.87048],[107.51609,12.87033],[107.51616,12.87016],[107.51622,12.86999],[107.51627,12.86981],[107.51632,12.86964],[107.51636,12.86946],[107.51639,12.86928],[107.5164,12.86919],[107.5169,12.86827],[107.51695,12.86819],[107.51703,12.86802],[107.5171,12.86786],[107.51717,12.86769],[107.51723,12.86752],[107.51723,12.86751],[107.51748,12.86673],[107.51753,12.86657],[107.51758,12.86639],[107.51762,12.86621],[107.51765,12.86604],[107.51766,12.86596],[107.51782,12.86476],[107.51783,12.86466],[107.51785,12.86448],[107.51786,12.8643],[107.51786,12.86412],[107.51786,12.86394],[107.51784,12.86376],[107.51782,12.86358],[107.5178,12.8634],[107.51776,12.86322],[107.51772,12.86304],[107.5177,12.86299],[107.5174,12.86187],[107.51736,12.86175],[107.51731,12.86158],[107.51724,12.86141],[107.51719,12.86127],[107.51695,12.86074],[107.51712,12.8607],[107.5173,12.86066],[107.51748,12.86061],[107.51765,12.86055],[107.51782,12.86049],[107.51786,12.86047],[107.51817,12.86035],[107.51882,12.86016],[107.51885,12.86015],[107.51903,12.86009],[107.5192,12.86003],[107.51937,12.85996],[107.51942,12.85994],[107.51974,12.85979],[107.52056,12.85955],[107.52057,12.85954],[107.52074,12.85949],[107.52092,12.85942],[107.52106,12.85936],[107.52109,12.85936],[107.52112,12.85935],[107.5213,12.85932],[107.52148,12.85929],[107.52166,12.85925],[107.52184,12.8592],[107.52201,12.85914],[107.52218,12.85908],[107.52235,12.859],[107.52252,12.85893],[107.52268,12.85884],[107.52284,12.85875],[107.523,12.85866],[107.52315,12.85856],[107.5233,12.85845],[107.52344,12.85833],[107.52401,12.85787],[107.52412,12.85777],[107.52534,12.8567],[107.52536,12.85667],[107.5255,12.85655],[107.52563,12.85642],[107.52575,12.85629],[107.52587,12.85615],[107.52598,12.856],[107.52608,12.85585],[107.52618,12.8557],[107.52628,12.85555],[107.52636,12.85539],[107.52644,12.85522],[107.52652,12.85506],[107.52654,12.855],[107.52691,12.85409],[107.52695,12.85397],[107.52701,12.8538],[107.52707,12.85363],[107.52707,12.85361],[107.52714,12.85336],[107.52721,12.85311],[107.52722,12.85306],[107.52731,12.853],[107.52745,12.85288],[107.52746,12.85288],[107.52813,12.85232],[107.52826,12.85221],[107.5284,12.85208],[107.52852,12.85195],[107.52865,12.85182],[107.52876,12.85168],[107.52888,12.85153],[107.52898,12.85139],[107.52908,12.85123],[107.52917,12.85108],[107.52926,12.85092],[107.52934,12.85076],[107.52941,12.85059],[107.52948,12.85044],[107.52974,12.84974],[107.52975,12.84972],[107.52981,12.84955],[107.52986,12.84938],[107.5299,12.8492],[107.52994,12.84902],[107.52997,12.84887],[107.53007,12.84825],[107.53007,12.84823],[107.5301,12.84805],[107.53011,12.84787],[107.53012,12.84769],[107.53012,12.84751],[107.53012,12.84732],[107.53011,12.84726],[107.53005,12.84634],[107.53008,12.84611],[107.53036,12.84477],[107.53037,12.84472],[107.53039,12.84459],[107.53043,12.84436],[107.53049,12.84423],[107.53055,12.84412],[107.53055,12.84411],[107.53075,12.84408],[107.53091,12.8441],[107.53109,12.84412],[107.53128,12.84414],[107.53146,12.84414],[107.53165,12.84414],[107.53183,12.84414],[107.53201,12.84412],[107.5322,12.8441],[107.53238,12.84407],[107.53256,12.84404],[107.53274,12.84399],[107.53291,12.84394],[107.53309,12.84389],[107.53326,12.84382],[107.53341,12.84376],[107.53357,12.84374],[107.53375,12.84371],[107.53393,12.84368],[107.53411,12.84364],[107.53429,12.84359],[107.53446,12.84353],[107.53464,12.84347],[107.53481,12.84339],[107.53497,12.84332],[107.53514,12.84323],[107.5353,12.84314],[107.53538,12.84309],[107.53588,12.84278],[107.53595,12.84274],[107.5361,12.84264],[107.53625,12.84253],[107.53639,12.84242],[107.53653,12.8423],[107.53666,12.84217],[107.53679,12.84204],[107.5369,12.84193],[107.53718,12.84184],[107.5372,12.84184],[107.53737,12.84178],[107.53755,12.84172],[107.53771,12.84165],[107.53788,12.84157],[107.53804,12.84148],[107.53806,12.84148],[107.53864,12.84117],[107.539,12.84101],[107.53961,12.84082],[107.5397,12.84078],[107.53987,12.84072],[107.54004,12.84065],[107.54021,12.84057],[107.54037,12.84049],[107.54053,12.8404],[107.54069,12.8403],[107.54084,12.8402],[107.54091,12.84015],[107.54119,12.83995],[107.54139,12.8398],[107.54147,12.83974],[107.54162,12.83963],[107.54175,12.83951],[107.54185,12.83942],[107.54229,12.839],[107.54257,12.83886],[107.54258,12.83886],[107.54288,12.83871],[107.543,12.83865],[107.54316,12.83856],[107.54332,12.83846],[107.54347,12.83836],[107.54362,12.83825],[107.54376,12.83814],[107.5439,12.83802],[107.54403,12.83789],[107.54416,12.83776],[107.54428,12.83763],[107.54432,12.83758],[107.54484,12.83697],[107.54491,12.83692],[107.54492,12.83691],[107.54505,12.83678],[107.54518,12.83665],[107.5453,12.83652],[107.54538,12.83642],[107.54591,12.83579],[107.54594,12.83575],[107.54605,12.83561],[107.54616,12.83546],[107.54626,12.83531],[107.54635,12.83515],[107.54644,12.83499],[107.54652,12.83483],[107.54659,12.83466],[107.54666,12.83449],[107.54672,12.83432],[107.54677,12.83415],[107.54682,12.83397],[107.54685,12.8338],[107.54688,12.83362],[107.54691,12.83344],[107.54692,12.8333],[107.54699,12.83248],[107.54699,12.83244],[107.547,12.83226],[107.547,12.83208],[107.547,12.8319],[107.54698,12.83172],[107.54697,12.83156],[107.54686,12.83071],[107.54685,12.83069],[107.54683,12.83051],[107.54679,12.83033],[107.54678,12.83029],[107.54681,12.83021],[107.54682,12.83017],[107.54701,12.82967],[107.54708,12.82949],[107.54728,12.82902],[107.54734,12.82887],[107.54736,12.82882],[107.54797,12.8281],[107.54803,12.82802],[107.54806,12.82799],[107.54832,12.82766],[107.54864,12.82777],[107.5488,12.82782],[107.54898,12.82787],[107.54915,12.82791],[107.54933,12.82795],[107.54952,12.82798],[107.5497,12.828],[107.54988,12.82801],[107.55007,12.82802],[107.55025,12.82802],[107.55044,12.82801],[107.55062,12.828],[107.55063,12.828],[107.55138,12.82792],[107.55155,12.8279],[107.55173,12.82787],[107.55191,12.82784],[107.55209,12.8278],[107.55227,12.82775],[107.55245,12.82769],[107.55262,12.82762],[107.55279,12.82755],[107.55295,12.82748],[107.55312,12.82739],[107.55328,12.8273],[107.55343,12.82721],[107.55359,12.82711],[107.55373,12.827],[107.55388,12.82688],[107.55401,12.82676],[107.55408,12.82671],[107.55439,12.82641],[107.55447,12.82634],[107.5546,12.82621],[107.55472,12.82608],[107.55484,12.82594],[107.55495,12.8258],[107.55505,12.82565],[107.55515,12.8255],[107.55525,12.82534],[107.55533,12.82518],[107.55541,12.82502],[107.55549,12.82485],[107.55555,12.82468],[107.55561,12.82451],[107.55567,12.82434],[107.55571,12.82416],[107.55575,12.82399],[107.55578,12.82381],[107.5558,12.82363],[107.55582,12.8235],[107.55588,12.8227],[107.55589,12.82266],[107.5559,12.82247],[107.5559,12.82229],[107.55589,12.82211],[107.55588,12.82193],[107.55586,12.82176],[107.55597,12.82171],[107.5565,12.82142],[107.55651,12.82142],[107.55667,12.82133],[107.55682,12.82123],[107.55698,12.82113],[107.55712,12.82102],[107.55727,12.82091],[107.55741,12.82079],[107.55754,12.82067],[107.55767,12.82054],[107.55779,12.8204],[107.55791,12.82026],[107.55802,12.82012],[107.55813,12.81997],[107.55822,12.81982],[107.55832,12.81966],[107.5584,12.8195],[107.55848,12.81934],[107.55856,12.81918],[107.5586,12.81907],[107.55878,12.81861],[107.5588,12.81855],[107.55886,12.81838],[107.55892,12.8182],[107.55896,12.81803],[107.559,12.81785],[107.55903,12.81767],[107.55906,12.81749],[107.55907,12.81731],[107.55908,12.81713],[107.55908,12.81695],[107.55908,12.81677],[107.55907,12.81659],[107.55905,12.81641],[107.55902,12.81623],[107.55898,12.81605],[107.55894,12.81588],[107.55893,12.81582],[107.55879,12.81532],[107.55876,12.81521],[107.5587,12.81504],[107.55864,12.81487],[107.55857,12.8147],[107.55849,12.81454],[107.55841,12.81437],[107.55832,12.81422],[107.55822,12.81406],[107.55817,12.81398],[107.55776,12.81339],[107.55774,12.81335],[107.55722,12.81261],[107.55715,12.81248],[107.55719,12.81239],[107.55722,12.81229],[107.55727,12.81212],[107.55732,12.81194],[107.55736,12.81177],[107.55739,12.81159],[107.55739,12.81154],[107.55753,12.81059],[107.55755,12.81045],[107.55756,12.81027],[107.55757,12.81009],[107.55758,12.80991],[107.55757,12.80973],[107.55756,12.80955],[107.55754,12.80939],[107.55754,12.80936],[107.55764,12.80935],[107.55782,12.80932],[107.558,12.80928],[107.55818,12.80924],[107.55836,12.80919],[107.55854,12.80913],[107.55871,12.80907],[107.55888,12.809],[107.55904,12.80892],[107.55921,12.80884],[107.55937,12.80875],[107.55952,12.80865],[107.55968,12.80855],[107.5597,12.80854],[107.56005,12.80829],[107.56018,12.80819],[107.56032,12.80808],[107.56046,12.80796],[107.56059,12.80784],[107.56072,12.80771],[107.56084,12.80757],[107.56096,12.80743],[107.56107,12.80729],[107.56118,12.80714],[107.56128,12.80699],[107.56137,12.80683],[107.56142,12.80674],[107.56172,12.80619],[107.56175,12.80612],[107.56183,12.80596],[107.56191,12.80579],[107.56198,12.80562],[107.56203,12.80545],[107.56208,12.80532],[107.56232,12.80449],[107.56249,12.8041],[107.5625,12.80407],[107.56256,12.8039],[107.56262,12.80375],[107.56284,12.80309],[107.56284,12.80308],[107.56289,12.8029],[107.56293,12.80277],[107.56317,12.8018],[107.56338,12.80103],[107.56342,12.80088],[107.56346,12.8007],[107.56349,12.80052],[107.56352,12.80034],[107.56352,12.80029],[107.56364,12.79915],[107.56365,12.79902],[107.56366,12.79884],[107.56366,12.79878],[107.56408,12.79821],[107.56417,12.79808],[107.56421,12.79802],[107.56465,12.79735],[107.56471,12.79726],[107.56481,12.7971],[107.56489,12.79694],[107.56497,12.79678],[107.565,12.79672],[107.56523,12.79622],[107.56525,12.79616],[107.56556,12.79544],[107.56586,12.79479],[107.56591,12.79468],[107.56592,12.79465],[107.56621,12.79393],[107.56627,12.79378],[107.56633,12.79361],[107.56638,12.79344],[107.56643,12.79326],[107.56647,12.79309],[107.56649,12.79299],[107.56665,12.79202],[107.5668,12.79146],[107.56681,12.7914],[107.56685,12.79123],[107.56701,12.79041],[107.56727,12.78922],[107.56729,12.78913],[107.56732,12.78895],[107.56734,12.78877],[107.56736,12.78859],[107.56736,12.78856],[107.56742,12.78771],[107.56742,12.78756],[107.56742,12.78738],[107.56742,12.7872],[107.56741,12.78702],[107.56739,12.78684],[107.56736,12.78666],[107.56732,12.78648],[107.56728,12.78631],[107.56723,12.78613],[107.56718,12.78596],[107.56711,12.78579],[107.56704,12.78562],[107.56697,12.78546],[107.56688,12.7853],[107.56679,12.78514],[107.5667,12.78499],[107.56663,12.78489],[107.56632,12.78444],[107.56628,12.78438],[107.56617,12.78424],[107.56606,12.7841],[107.56594,12.78396],[107.56581,12.78383],[107.56568,12.7837],[107.56555,12.78358],[107.56541,12.78346],[107.56526,12.78335],[107.56511,12.78325],[107.56496,12.78315],[107.5648,12.78305],[107.56464,12.78297],[107.56447,12.78289],[107.5643,12.78281],[107.56413,12.78275],[107.56401,12.7827],[107.56394,12.78223],[107.56392,12.78213],[107.5638,12.7814],[107.5638,12.78093],[107.56381,12.78091],[107.56395,12.78079],[107.56409,12.78067],[107.56421,12.78054],[107.56434,12.7804],[107.56445,12.78026],[107.56457,12.78012],[107.56467,12.77997],[107.56477,12.77982],[107.56486,12.77966],[107.56495,12.7795],[107.56499,12.77943],[107.56525,12.7789],[107.56529,12.77881],[107.56537,12.77865],[107.56539,12.77859],[107.56562,12.77801],[107.56572,12.77777],[107.56596,12.77735],[107.566,12.77728],[107.56631,12.7767],[107.56635,12.77664],[107.56643,12.77647],[107.5665,12.77631],[107.56657,12.77614],[107.56663,12.77597],[107.56668,12.77579],[107.56673,12.77562],[107.56676,12.77544],[107.56679,12.77526],[107.5668,12.77522],[107.56688,12.7747],[107.56689,12.77457],[107.56691,12.77439],[107.56692,12.77421],[107.56692,12.77403],[107.56692,12.77385],[107.5669,12.77366],[107.56688,12.77349],[107.56685,12.77331],[107.56682,12.77313],[107.56678,12.77295],[107.56673,12.77278],[107.56667,12.77261],[107.56661,12.77244],[107.56654,12.77227],[107.56646,12.77211],[107.56638,12.77194],[107.56629,12.77179],[107.56622,12.77168],[107.56553,12.7706],[107.56515,12.76992],[107.5651,12.76983],[107.56502,12.7697],[107.56477,12.76931],[107.56443,12.76878],[107.56442,12.76872],[107.56442,12.76861],[107.56441,12.76843],[107.56439,12.76825],[107.56437,12.76813],[107.56429,12.76761],[107.56426,12.76723],[107.56426,12.76681],[107.56433,12.76613],[107.56434,12.76604],[107.56435,12.76586],[107.56435,12.76584],[107.56436,12.76518],[107.56436,12.76503],[107.56436,12.76436],[107.56436,12.76435],[107.56435,12.76417],[107.56434,12.76399],[107.56432,12.76381],[107.56429,12.76363],[107.56426,12.76345],[107.56422,12.76328],[107.56417,12.7631],[107.56415,12.76303],[107.56397,12.7625],[107.56394,12.7624],[107.56392,12.76235],[107.56366,12.76162],[107.56364,12.76158],[107.56351,12.76123],[107.56345,12.76098],[107.56345,12.76086],[107.56343,12.75991],[107.56343,12.75973],[107.56352,12.75928],[107.56385,12.75778],[107.56387,12.75767],[107.56391,12.75749],[107.56393,12.75731],[107.56394,12.75723],[107.56403,12.75621],[107.56406,12.75604],[107.5641,12.75593],[107.56414,12.75585],[107.5642,12.75568],[107.56426,12.75551],[107.56432,12.75534],[107.56436,12.75516],[107.5644,12.75499],[107.56451,12.75442],[107.56454,12.75424],[107.56457,12.75407],[107.56458,12.75389],[107.56459,12.75383],[107.56464,12.7529],[107.56465,12.75277],[107.56465,12.75259],[107.56464,12.75241],[107.56464,12.75228],[107.56461,12.75192],[107.56458,12.75156],[107.56462,12.75156],[107.56481,12.75155],[107.56499,12.75153],[107.56517,12.75151],[107.56535,12.75148],[107.56553,12.75145],[107.56571,12.7514],[107.56589,12.75135],[107.56606,12.7513],[107.56624,12.75123],[107.56641,12.75116],[107.56657,12.75109],[107.56674,12.751],[107.5669,12.75091],[107.56705,12.75082],[107.5672,12.75071],[107.56735,12.75061],[107.5675,12.75049],[107.56763,12.75037],[107.56777,12.75025],[107.5679,12.75012],[107.56802,12.74998],[107.56814,12.74985],[107.56825,12.7497],[107.56835,12.74955],[107.56845,12.7494],[107.56854,12.74925],[107.56863,12.74909],[107.56871,12.74892],[107.56879,12.74876],[107.56885,12.74859],[107.56888,12.74852],[107.56912,12.74784],[107.56915,12.74773],[107.56921,12.74756],[107.56925,12.74738],[107.56929,12.74721],[107.56932,12.74703],[107.56935,12.74685],[107.56936,12.74667],[107.56937,12.74649],[107.56937,12.74631],[107.56937,12.74613],[107.56936,12.74595],[107.56934,12.74577],[107.56931,12.74559],[107.56927,12.74541],[107.56923,12.74524],[107.56918,12.74506],[107.56915,12.74495],[107.56901,12.74454],[107.56902,12.74448],[107.56903,12.7443],[107.56904,12.74412],[107.56904,12.74394],[107.56904,12.74376],[107.56903,12.74358],[107.569,12.7434],[107.56898,12.74322],[107.56894,12.74304],[107.56891,12.74289],[107.56886,12.74272],[107.56866,12.74192],[107.56817,12.73985],[107.56815,12.73976],[107.5681,12.73958],[107.56793,12.73904],[107.56781,12.73844],[107.56785,12.73825],[107.56805,12.73805],[107.56841,12.73773],[107.56971,12.73671],[107.5698,12.73664],[107.56994,12.73652],[107.57007,12.73639],[107.5702,12.73626],[107.57032,12.73613],[107.5704,12.73604],[107.57108,12.73522],[107.57112,12.73517],[107.57123,12.73503],[107.57133,12.73488],[107.57143,12.73473],[107.57153,12.73457],[107.57161,12.73441],[107.57169,12.73425],[107.57177,12.73408],[107.57183,12.73392],[107.57189,12.73375],[107.57194,12.73357],[107.57199,12.7334],[107.57203,12.73322],[107.57206,12.73304],[107.57208,12.73286],[107.5721,12.73268],[107.57211,12.7325],[107.57211,12.73232],[107.57211,12.73214],[107.5721,12.73204],[107.57206,12.73149],[107.57219,12.73033],[107.5722,12.73016],[107.57228,12.72917],[107.57229,12.72899],[107.57229,12.72898],[107.57231,12.72824],[107.57231,12.72806],[107.5723,12.72788],[107.57229,12.7277],[107.57227,12.72752],[107.57224,12.72734],[107.57221,12.72717],[107.57217,12.72699],[107.57212,12.72682],[107.57206,12.72664],[107.57203,12.72657],[107.57177,12.72587],[107.57174,12.72577],[107.57167,12.7256],[107.57159,12.72544],[107.57151,12.72528],[107.57142,12.72512],[107.57132,12.72497],[107.57122,12.72481],[107.57111,12.72467],[107.571,12.72453],[107.57088,12.72439],[107.57075,12.72426],[107.57074,12.72425],[107.57031,12.72381],[107.56984,12.72328],[107.56979,12.72323],[107.56975,12.72319],[107.56972,12.72315],[107.56968,12.72307],[107.56961,12.72292],[107.56953,12.72276],[107.56944,12.7226],[107.56934,12.72245],[107.56924,12.7223],[107.56923,12.72228],[107.56889,12.7218],[107.56864,12.72141],[107.5686,12.72135],[107.56849,12.7212],[107.5684,12.72107],[107.56798,12.72053],[107.56767,12.72005],[107.56752,12.71975],[107.56742,12.71942],[107.56737,12.71928],[107.56731,12.71911],[107.56724,12.71894],[107.56716,12.71878],[107.56708,12.71862],[107.56699,12.71846],[107.56691,12.71833],[107.56644,12.7176],[107.56643,12.71758],[107.56632,12.71743],[107.56621,12.71728],[107.56615,12.71721],[107.56604,12.71682],[107.56602,12.71673],[107.56596,12.71655],[107.5659,12.71638],[107.56583,12.71622],[107.56575,12.71605],[107.56567,12.71589],[107.56558,12.71573],[107.56551,12.71562],[107.56528,12.71526],[107.56525,12.71522],[107.56515,12.71507],[107.56504,12.71492],[107.56493,12.71478],[107.56481,12.71465],[107.56468,12.71451],[107.56455,12.71439],[107.56441,12.71426],[107.56427,12.71415],[107.56413,12.71404],[107.56398,12.71393],[107.564,12.71363],[107.564,12.71357],[107.564,12.71339],[107.564,12.7132],[107.56398,12.71302],[107.56396,12.71286],[107.56415,12.71248],[107.56417,12.71243],[107.56424,12.71226],[107.56431,12.71209],[107.56437,12.71192],[107.56438,12.7119],[107.56456,12.71133],[107.56461,12.71118],[107.56465,12.711],[107.56467,12.71093],[107.56474,12.71088],[107.5649,12.71078],[107.56504,12.71067],[107.56519,12.71056],[107.56533,12.71044],[107.56546,12.71031],[107.56559,12.71018],[107.56571,12.71005],[107.56583,12.70991],[107.56594,12.70977],[107.56604,12.70962],[107.56614,12.70947],[107.56624,12.70931],[107.56631,12.70918],[107.5666,12.70863],[107.56661,12.7086],[107.56669,12.70844],[107.56677,12.70828],[107.56683,12.70811],[107.56689,12.70794],[107.56694,12.70776],[107.56699,12.70759],[107.56703,12.70741],[107.56706,12.70723],[107.56708,12.70705],[107.5671,12.70687],[107.56711,12.70669],[107.56711,12.70651],[107.56711,12.70639],[107.56709,12.70594],[107.56709,12.70588],[107.56709,12.70585],[107.56709,12.70584],[107.56714,12.70566],[107.56718,12.70548],[107.56721,12.70531],[107.56723,12.70513],[107.56725,12.70495],[107.56726,12.70477],[107.56726,12.70458],[107.56725,12.7044],[107.56724,12.70422],[107.56722,12.70404],[107.56719,12.70387],[107.56716,12.70369],[107.56712,12.70351],[107.56707,12.70334],[107.56701,12.70317],[107.56695,12.703],[107.56688,12.70283],[107.5668,12.70266],[107.56672,12.7025],[107.56663,12.70235],[107.56653,12.70219],[107.56643,12.70204],[107.56632,12.7019],[107.56621,12.70175],[107.56609,12.70162],[107.56601,12.70153],[107.56523,12.70072],[107.56523,12.70067],[107.56522,12.70037],[107.56521,12.70021],[107.56521,12.70013],[107.5652,12.69995],[107.56518,12.69977],[107.56515,12.69959],[107.56511,12.69942],[107.56507,12.69924],[107.56502,12.69906],[107.56497,12.69889],[107.5649,12.69872],[107.56483,12.69856],[107.56476,12.69839],[107.56467,12.69823],[107.56458,12.69807],[107.56449,12.69792],[107.56438,12.69777],[107.56428,12.69762],[107.56416,12.69748],[107.56404,12.69734],[107.56392,12.69721],[107.56378,12.69708],[107.56365,12.69696],[107.56351,12.69685],[107.56336,12.69673],[107.56321,12.69663],[107.56306,12.69653],[107.56291,12.69644],[107.56285,12.69609],[107.56285,12.69608],[107.56281,12.6959],[107.56277,12.69572],[107.56272,12.69555],[107.56267,12.69538],[107.5626,12.69521],[107.56253,12.69504],[107.56246,12.69488],[107.56237,12.69472],[107.56228,12.69456],[107.56219,12.6944],[107.56208,12.69425],[107.56198,12.69411],[107.56195,12.69408],[107.56104,12.69291],[107.56094,12.6928],[107.56082,12.69266],[107.5607,12.69253],[107.56057,12.6924],[107.56043,12.69228],[107.56029,12.69217],[107.56015,12.69205],[107.56,12.69195],[107.55984,12.69185],[107.55968,12.69176],[107.55952,12.69167],[107.55936,12.69159],[107.55919,12.69152],[107.55902,12.69145],[107.55884,12.69139],[107.55883,12.69139],[107.55803,12.69113],[107.5576,12.69099],[107.557,12.69079],[107.55684,12.69074],[107.55666,12.6907],[107.55648,12.69066],[107.5563,12.69062],[107.55612,12.6906],[107.55602,12.69059],[107.55502,12.69049],[107.55432,12.69032],[107.55311,12.6898],[107.55309,12.68979],[107.55307,12.68979],[107.553,12.6895],[107.55297,12.68938],[107.55292,12.6892],[107.55288,12.68908],[107.55238,12.6876],[107.55237,12.68756],[107.55231,12.6874],[107.5523,12.68723],[107.55228,12.68705],[107.55225,12.68688],[107.55224,12.68679],[107.55206,12.68591],[107.55205,12.68582],[107.552,12.68565],[107.55196,12.68547],[107.5519,12.6853],[107.55184,12.68513],[107.55177,12.68496],[107.55169,12.6848],[107.55161,12.68464],[107.55152,12.68448],[107.55142,12.68433],[107.55132,12.68418],[107.55121,12.68403],[107.55109,12.68389],[107.55097,12.68375],[107.55085,12.68362],[107.55072,12.68349],[107.55058,12.68337],[107.55044,12.68325],[107.5503,12.68314],[107.55015,12.68304],[107.54999,12.68294],[107.54983,12.68285],[107.54967,12.68276],[107.54951,12.68268],[107.54934,12.6826],[107.54917,12.68254],[107.549,12.68248],[107.54882,12.68242],[107.54864,12.68238],[107.54846,12.68234],[107.54828,12.6823],[107.5481,12.68228],[107.54792,12.68226],[107.54784,12.68226],[107.54783,12.68224],[107.54771,12.68211],[107.54758,12.68197],[107.54745,12.68185],[107.54732,12.68173],[107.54677,12.68125],[107.5466,12.6811],[107.54645,12.68099],[107.54637,12.68092],[107.54599,12.68064],[107.54579,12.68048],[107.54576,12.68046],[107.54573,12.68044],[107.54572,12.68043],[107.5457,12.68041],[107.54568,12.6804],[107.54474,12.67968],[107.54467,12.67963],[107.54452,12.67952],[107.54436,12.67942],[107.54421,12.67933],[107.54404,12.67924],[107.54388,12.67916],[107.54371,12.67909],[107.54354,12.67902],[107.54337,12.67896],[107.54319,12.67891],[107.54315,12.6789],[107.54314,12.67889],[107.54273,12.67878],[107.54219,12.67863],[107.54206,12.6786],[107.54203,12.67859],[107.542,12.67858],[107.54176,12.67851],[107.54138,12.67839],[107.54098,12.67827],[107.54089,12.67824],[107.54071,12.6782],[107.54053,12.67816],[107.54035,12.67812],[107.54017,12.6781],[107.53999,12.67808],[107.5398,12.67807],[107.53962,12.67807],[107.53944,12.67807],[107.53925,12.67808],[107.53907,12.6781],[107.53889,12.67812],[107.5387,12.67816],[107.53853,12.6782],[107.53835,12.67824],[107.53817,12.6783],[107.538,12.67836],[107.53783,12.67842],[107.53761,12.67851],[107.53659,12.67865],[107.53651,12.67867],[107.53633,12.6787],[107.53615,12.67874],[107.53607,12.67876],[107.53606,12.67876],[107.536,12.67878],[107.53596,12.67871],[107.53587,12.67855],[107.53583,12.67849],[107.53582,12.67848],[107.53519,12.67755],[107.53513,12.67746],[107.53502,12.67731],[107.5349,12.67717],[107.53478,12.67703],[107.53466,12.6769],[107.53465,12.67689],[107.53463,12.67688],[107.53448,12.67672],[107.5344,12.67655],[107.53431,12.67637],[107.53429,12.67633],[107.53421,12.67617],[107.53412,12.67601],[107.53402,12.67586],[107.53392,12.67571],[107.53381,12.67556],[107.53379,12.67554],[107.53356,12.67524],[107.53331,12.67492],[107.53314,12.67471],[107.53304,12.67459],[107.53292,12.67445],[107.5328,12.67432],[107.53277,12.67429],[107.53252,12.67404],[107.53232,12.67384],[107.53229,12.67381],[107.53186,12.67318],[107.53183,12.67313],[107.53172,12.67299],[107.5316,12.67285],[107.53148,12.67271],[107.53136,12.67258],[107.53123,12.67245],[107.53109,12.67233],[107.53095,12.67221],[107.53086,12.67214],[107.53078,12.67208],[107.53076,12.67201],[107.5307,12.67184],[107.53064,12.67167],[107.53057,12.6715],[107.53049,12.67134],[107.53041,12.67118],[107.53032,12.67102],[107.53022,12.67086],[107.53012,12.67071],[107.53001,12.67057],[107.5299,12.67043],[107.52978,12.67029],[107.52965,12.67016],[107.52952,12.67003],[107.52938,12.66991],[107.52924,12.66979],[107.5291,12.66968],[107.52895,12.66957],[107.52879,12.66948],[107.52864,12.66938],[107.52847,12.6693],[107.52831,12.66922],[107.52814,12.66914],[107.52797,12.66907],[107.5278,12.66901],[107.52762,12.66896],[107.52744,12.66891],[107.52726,12.66887],[107.52708,12.66884],[107.5269,12.66882],[107.52672,12.6688],[107.52653,12.66879],[107.52635,12.66878],[107.52617,12.66879],[107.52598,12.6688],[107.5258,12.66882],[107.52562,12.66884],[107.52543,12.66887],[107.52542,12.66888],[107.52505,12.66895],[107.52465,12.66903],[107.5243,12.6691],[107.52413,12.66914],[107.52395,12.66919],[107.52378,12.66924],[107.52361,12.6693],[107.52343,12.66937],[107.52327,12.66944],[107.5231,12.66952],[107.523,12.66958],[107.52288,12.66955],[107.5227,12.66952],[107.52252,12.66949],[107.52233,12.66947],[107.52215,12.66946],[107.52196,12.66946],[107.52178,12.66946],[107.5216,12.66947],[107.52141,12.66949],[107.52123,12.66952],[107.52105,12.66955],[107.52087,12.66959],[107.52069,12.66963],[107.52052,12.66969],[107.52034,12.66975],[107.52017,12.66981],[107.52,12.66989],[107.51984,12.66997],[107.51968,12.67006],[107.51952,12.67015],[107.51937,12.67025],[107.51922,12.67035],[107.51907,12.67046],[107.51893,12.67058],[107.51879,12.6707],[107.51866,12.67083],[107.51854,12.67096],[107.51848,12.67102],[107.51834,12.67118],[107.51828,12.67126],[107.51799,12.67158],[107.51799,12.67155],[107.51793,12.67138],[107.51787,12.67121],[107.5178,12.67104],[107.51772,12.67088],[107.51764,12.67071],[107.51755,12.67056],[107.51745,12.6704],[107.51735,12.67025],[107.51724,12.67011],[107.51713,12.66996],[107.51701,12.66983],[107.51688,12.6697],[107.51675,12.66957],[107.51672,12.66954],[107.51669,12.66948],[107.51659,12.66933],[107.51649,12.66918],[107.51638,12.66903],[107.51636,12.66901],[107.51635,12.66896],[107.51633,12.66878],[107.51629,12.6686],[107.51625,12.66843],[107.5162,12.66825],[107.51615,12.66808],[107.51608,12.66791],[107.51601,12.66774],[107.51594,12.66758],[107.51585,12.66742],[107.51576,12.66726],[107.51567,12.66711],[107.51556,12.66696],[107.51546,12.66681],[107.51534,12.66667],[107.5153,12.66662],[107.51508,12.66636],[107.51492,12.66618],[107.51488,12.66614],[107.5148,12.66605],[107.51468,12.66592],[107.51455,12.66579],[107.51441,12.66567],[107.51427,12.66555],[107.51412,12.66544],[107.51397,12.66533],[107.51382,12.66523],[107.51366,12.66514],[107.5135,12.66505],[107.51334,12.66497],[107.51317,12.6649],[107.513,12.66483],[107.51282,12.66477],[107.51265,12.66472],[107.51247,12.66467],[107.51229,12.66463],[107.51211,12.6646],[107.51193,12.66458],[107.51174,12.66456],[107.51156,12.66455],[107.51138,12.66454],[107.51119,12.66455],[107.51105,12.66456],[107.51091,12.66443],[107.51077,12.66432],[107.51062,12.66421],[107.51047,12.6641],[107.51032,12.664],[107.51016,12.66391],[107.51,12.66382],[107.50984,12.66374],[107.50967,12.66367],[107.5095,12.6636],[107.50932,12.66354],[107.50915,12.66349],[107.50897,12.66344],[107.50879,12.6634],[107.50861,12.66337],[107.50843,12.66334],[107.50824,12.66332],[107.50806,12.66331],[107.50788,12.66331],[107.50769,12.66331],[107.50751,12.66332],[107.50732,12.66334],[107.50716,12.66336],[107.50699,12.66339],[107.5069,12.66335],[107.50673,12.66328],[107.50656,12.66322],[107.50638,12.66317],[107.5062,12.66312],[107.50602,12.66308],[107.50584,12.66305],[107.50566,12.66303],[107.50548,12.66301],[107.50529,12.663],[107.50511,12.66299],[107.50504,12.66299],[107.50498,12.66299],[107.50494,12.66299],[107.50488,12.66299],[107.50469,12.663],[107.50451,12.66301],[107.50433,12.66303],[107.50414,12.66305],[107.50396,12.66308],[107.50378,12.66312],[107.5036,12.66317],[107.50343,12.66322],[107.50326,12.66328],[107.50308,12.66335],[107.50292,12.66342],[107.50275,12.6635],[107.50259,12.66359],[107.50243,12.66368],[107.50228,12.66378],[107.50213,12.66389],[107.50198,12.664],[107.50184,12.66411],[107.50171,12.66424],[107.50157,12.66436],[107.50145,12.6645],[107.50133,12.66463],[107.50121,12.66477],[107.50111,12.66492],[107.501,12.66507],[107.50091,12.66522],[107.50082,12.66538],[107.50073,12.66554],[107.50066,12.66571],[107.50059,12.66588],[107.50052,12.66604],[107.50047,12.66622],[107.50042,12.66639],[107.50038,12.66657],[107.50034,12.66674],[107.50031,12.66692],[107.50029,12.6671],[107.50028,12.66728],[107.50027,12.66746],[107.50028,12.66764],[107.50029,12.66783],[107.5003,12.66801],[107.50033,12.66818],[107.50036,12.66836],[107.5004,12.66854],[107.50044,12.66871],[107.50049,12.66889],[107.50055,12.66906],[107.50062,12.66923],[107.50069,12.66939],[107.50077,12.66956],[107.50086,12.66972],[107.50095,12.66987],[107.50105,12.67002],[107.50116,12.67017],[107.50127,12.67032],[107.50139,12.67046],[107.50151,12.67059],[107.50164,12.67072],[107.50177,12.67084],[107.50191,12.67096],[107.50205,12.67108],[107.5022,12.67119],[107.50235,12.67129],[107.50251,12.67138],[107.50264,12.67148],[107.50279,12.67158],[107.50295,12.67168],[107.50311,12.67177],[107.50327,12.67185],[107.50344,12.67193],[107.50361,12.672],[107.50378,12.67206],[107.5039,12.67211],[107.50434,12.67224],[107.50444,12.67236],[107.50457,12.67249],[107.5047,12.67261],[107.50484,12.67273],[107.50499,12.67284],[107.50513,12.67295],[107.50529,12.67305],[107.50544,12.67315],[107.5056,12.67324],[107.50565,12.67326],[107.50592,12.67341],[107.50631,12.67361],[107.50643,12.67367],[107.5066,12.67375],[107.50677,12.67382],[107.50694,12.67388],[107.50711,12.67394],[107.50729,12.67399],[107.50747,12.67403],[107.50765,12.67407],[107.50783,12.6741],[107.50801,12.67412],[107.5082,12.67413],[107.50826,12.67414],[107.50857,12.67415],[107.50859,12.67432],[107.50862,12.6745],[107.50866,12.67467],[107.50871,12.67485],[107.50876,12.67502],[107.50882,12.67519],[107.50889,12.67536],[107.50896,12.67553],[107.50904,12.67569],[107.50913,12.67585],[107.50922,12.676],[107.50932,12.67616],[107.50942,12.6763],[107.50954,12.67645],[107.50965,12.67659],[107.50978,12.67672],[107.5099,12.67685],[107.51004,12.67698],[107.51015,12.67707],[107.51015,12.6771],[107.51021,12.67727],[107.51028,12.67744],[107.51035,12.6776],[107.51043,12.67776],[107.51052,12.67792],[107.51061,12.67808],[107.51071,12.67823],[107.51082,12.67838],[107.51088,12.67847],[107.51094,12.67854],[107.51112,12.67877],[107.51118,12.67884],[107.51124,12.67893],[107.51129,12.67898],[107.51141,12.67912],[107.51153,12.67926],[107.51166,12.67939],[107.51179,12.67951],[107.51193,12.67963],[107.51207,12.67975],[107.51222,12.67985],[107.51237,12.67996],[107.51253,12.68005],[107.51269,12.68014],[107.51285,12.68023],[107.51302,12.6803],[107.51319,12.68037],[107.51336,12.68044],[107.51353,12.68049],[107.51371,12.68054],[107.51383,12.68057],[107.51399,12.68061],[107.51419,12.68066],[107.51446,12.68072],[107.51461,12.68079],[107.51473,12.68085],[107.51481,12.68088],[107.51498,12.68095],[107.51516,12.68102],[107.51533,12.68108],[107.51551,12.68113],[107.51569,12.68117],[107.51587,12.6812],[107.51605,12.68123],[107.51623,12.68126],[107.51641,12.68127],[107.5166,12.68128],[107.51678,12.68128],[107.51697,12.68127],[107.51715,12.68126],[107.51733,12.68123],[107.51752,12.68121],[107.5177,12.68117],[107.51787,12.68113],[107.51805,12.68108],[107.51822,12.68102],[107.51853,12.68091],[107.51859,12.6809],[107.51861,12.6809],[107.51879,12.68092],[107.51898,12.68094],[107.51916,12.68094],[107.51934,12.68094],[107.51953,12.68094],[107.51971,12.68092],[107.51989,12.6809],[107.52008,12.68087],[107.52025,12.68084],[107.52115,12.68064],[107.52129,12.68061],[107.5213,12.68061],[107.52148,12.68056],[107.52165,12.68052],[107.52183,12.68046],[107.522,12.68039],[107.52217,12.68032],[107.52234,12.68025],[107.5225,12.68016],[107.52267,12.68007],[107.52288,12.67996],[107.52308,12.67985],[107.52323,12.67977],[107.52339,12.67967],[107.52354,12.67957],[107.52369,12.67946],[107.52383,12.67935],[107.52397,12.67923],[107.5241,12.6791],[107.52423,12.67897],[107.52435,12.67884],[107.52442,12.67877],[107.5245,12.67875],[107.52465,12.67885],[107.52467,12.67886],[107.52469,12.6789],[107.52472,12.67894],[107.52495,12.67927],[107.52503,12.67939],[107.52515,12.67953],[107.52526,12.67967],[107.52539,12.6798],[107.52548,12.6799],[107.52575,12.68017],[107.52597,12.68039],[107.52603,12.68044],[107.5262,12.68066],[107.52643,12.68114],[107.52648,12.68126],[107.52654,12.68138],[107.52663,12.68154],[107.52672,12.68169],[107.52682,12.68185],[107.52693,12.68199],[107.52704,12.68214],[107.52716,12.68228],[107.52728,12.68241],[107.52735,12.68249],[107.52748,12.68261],[107.52749,12.68268],[107.52751,12.68286],[107.52754,12.68304],[107.52758,12.68322],[107.52763,12.68339],[107.52768,12.68357],[107.52774,12.68374],[107.5278,12.68391],[107.52788,12.68407],[107.52796,12.68423],[107.52804,12.68439],[107.52814,12.68455],[107.52824,12.6847],[107.52834,12.68485],[107.52845,12.68499],[107.52857,12.68513],[107.52869,12.68527],[107.52882,12.6854],[107.52883,12.6854],[107.52906,12.68563],[107.52929,12.68585],[107.5298,12.68634],[107.52982,12.68636],[107.52994,12.68648],[107.53008,12.6866],[107.53023,12.68671],[107.53037,12.68682],[107.53052,12.68692],[107.53068,12.68702],[107.53084,12.68711],[107.531,12.68719],[107.53117,12.68727],[107.53134,12.68734],[107.53151,12.6874],[107.53153,12.68741],[107.53243,12.68772],[107.53254,12.68776],[107.53269,12.68781],[107.53284,12.68786],[107.53302,12.68791],[107.5332,12.68795],[107.53338,12.68799],[107.53356,12.68802],[107.53374,12.68804],[107.53393,12.68805],[107.53411,12.68806],[107.53429,12.68806],[107.53448,12.68805],[107.53466,12.68804],[107.53473,12.68803],[107.53487,12.68801],[107.53541,12.68795],[107.53544,12.68795],[107.53601,12.68789],[107.53682,12.6878],[107.53722,12.68775],[107.53736,12.68774],[107.53754,12.68771],[107.53772,12.68767],[107.53789,12.68763],[107.5379,12.68763],[107.53816,12.68756],[107.53937,12.68739],[107.53949,12.68737],[107.53967,12.68735],[107.53972,12.68734],[107.53974,12.68734],[107.53977,12.68744],[107.53983,12.68761],[107.53989,12.68778],[107.53997,12.68794],[107.54005,12.68811],[107.54013,12.68827],[107.54023,12.68842],[107.54033,12.68857],[107.54043,12.68872],[107.54054,12.68887],[107.54066,12.68901],[107.54078,12.68914],[107.54091,12.68927],[107.54104,12.6894],[107.54118,12.68951],[107.54133,12.68963],[107.54147,12.68974],[107.54163,12.68984],[107.54178,12.68993],[107.54194,12.69002],[107.5421,12.69011],[107.54227,12.69019],[107.54239,12.69024],[107.543,12.69048],[107.54369,12.69087],[107.54377,12.69092],[107.54382,12.69094],[107.54407,12.6917],[107.54414,12.69197],[107.54436,12.69296],[107.54441,12.69316],[107.54458,12.69395],[107.54465,12.69425],[107.54466,12.69433],[107.54471,12.69451],[107.54476,12.69468],[107.54482,12.69485],[107.54489,12.69502],[107.54496,12.69518],[107.54504,12.69535],[107.54513,12.69551],[107.54522,12.69566],[107.54532,12.69581],[107.54543,12.69596],[107.54554,12.69611],[107.54566,12.69625],[107.54578,12.69638],[107.54591,12.69651],[107.54604,12.69664],[107.54618,12.69675],[107.5462,12.69677],[107.54623,12.69679],[107.54647,12.69699],[107.54652,12.69704],[107.54687,12.69732],[107.547,12.69742],[107.54714,12.69753],[107.5473,12.69763],[107.54745,12.69773],[107.54761,12.69782],[107.54777,12.6979],[107.54794,12.69798],[107.54811,12.69805],[107.54828,12.69811],[107.54846,12.69817],[107.54863,12.69822],[107.54881,12.69826],[107.54899,12.6983],[107.54918,12.69833],[107.54936,12.69835],[107.54954,12.69836],[107.54973,12.69837],[107.54991,12.69837],[107.55009,12.69836],[107.5509,12.6987],[107.55102,12.69875],[107.55112,12.6988],[107.5513,12.69886],[107.55147,12.69892],[107.55165,12.69897],[107.55168,12.69897],[107.55305,12.69933],[107.5532,12.69936],[107.55338,12.6994],[107.55357,12.69943],[107.55375,12.69945],[107.55376,12.69945],[107.554,12.69947],[107.55402,12.69957],[107.55407,12.69975],[107.55412,12.69992],[107.55418,12.70009],[107.55425,12.70026],[107.55432,12.70043],[107.5544,12.70059],[107.55449,12.70075],[107.55456,12.70087],[107.55459,12.70092],[107.55461,12.70098],[107.55465,12.70111],[107.55472,12.70128],[107.55479,12.70144],[107.55487,12.7016],[107.55496,12.70176],[107.55505,12.70192],[107.55515,12.70207],[107.55526,12.70222],[107.55537,12.70236],[107.55549,12.7025],[107.55561,12.70264],[107.55574,12.70277],[107.55587,12.70289],[107.55598,12.70299],[107.55604,12.7033],[107.55608,12.70348],[107.55611,12.70362],[107.55616,12.70379],[107.55621,12.70397],[107.55627,12.70414],[107.55634,12.7043],[107.55641,12.70447],[107.55649,12.70463],[107.55658,12.70479],[107.55661,12.70486],[107.55655,12.70492],[107.55643,12.70506],[107.55632,12.7052],[107.55621,12.70535],[107.5561,12.7055],[107.55601,12.70565],[107.55592,12.70581],[107.55584,12.70597],[107.55576,12.70613],[107.55569,12.7063],[107.55562,12.70647],[107.55557,12.70664],[107.55552,12.70682],[107.55548,12.70699],[107.55544,12.70717],[107.55544,12.70721],[107.55535,12.70775],[107.55533,12.70789],[107.55531,12.70807],[107.55529,12.70825],[107.55529,12.70843],[107.55529,12.70861],[107.5553,12.70879],[107.55531,12.70897],[107.55534,12.70915],[107.55536,12.70926],[107.5554,12.7095],[107.55529,12.70973],[107.55523,12.70986],[107.55516,12.71003],[107.5551,12.7102],[107.55504,12.71037],[107.55499,12.71054],[107.55495,12.71072],[107.55492,12.71087],[107.5547,12.71205],[107.5547,12.71208],[107.55467,12.71226],[107.55465,12.71244],[107.55464,12.71262],[107.55463,12.7128],[107.55463,12.71298],[107.55464,12.71316],[107.55466,12.71334],[107.55468,12.71352],[107.55471,12.71369],[107.55475,12.71387],[107.55477,12.71395],[107.55476,12.71419],[107.55468,12.71483],[107.5546,12.7153],[107.5546,12.7153],[107.55457,12.71548],[107.55455,12.71566],[107.55454,12.71584],[107.55453,12.71602],[107.55453,12.7162],[107.55454,12.71638],[107.55456,12.71656],[107.55458,12.71674],[107.55461,12.71692],[107.55465,12.7171],[107.5547,12.71727],[107.55475,12.71744],[107.5551,12.71851],[107.5551,12.71852],[107.55516,12.71869],[107.55522,12.71886],[107.5553,12.71902],[107.55538,12.71919],[107.55546,12.71935],[107.55556,12.7195],[107.55566,12.71965],[107.55576,12.7198],[107.55587,12.71995],[107.55599,12.72009],[107.55611,12.72022],[107.55624,12.72035],[107.55637,12.72047],[107.55651,12.72059],[107.55666,12.72071],[107.5568,12.72082],[107.55696,12.72092],[107.55711,12.72101],[107.55727,12.7211],[107.55743,12.72119],[107.5576,12.72126],[107.55777,12.72133],[107.55783,12.72135],[107.55785,12.72141],[107.55793,12.72157],[107.55802,12.72173],[107.55811,12.72189],[107.55821,12.72204],[107.55831,12.72219],[107.55843,12.72233],[107.55854,12.72247],[107.55867,12.72261],[107.55879,12.72274],[107.55885,12.72279],[107.5589,12.72294],[107.55897,12.72311],[107.55904,12.72327],[107.55907,12.72334],[107.55949,12.7242],[107.55954,12.7243],[107.55963,12.72446],[107.55972,12.72462],[107.55978,12.7247],[107.56034,12.72556],[107.56038,12.72563],[107.56049,12.72578],[107.56053,12.72583],[107.56092,12.72634],[107.56113,12.72667],[107.56122,12.72681],[107.56128,12.7269],[107.56144,12.72712],[107.5616,12.72746],[107.56163,12.72753],[107.56171,12.7277],[107.56179,12.72786],[107.56189,12.72801],[107.56199,12.72816],[107.56209,12.72831],[107.5622,12.72846],[107.56232,12.72859],[107.56242,12.7287],[107.56293,12.72925],[107.56304,12.72937],[107.56303,12.72944],[107.56292,12.73048],[107.56256,12.73075],[107.56254,12.73077],[107.5624,12.73088],[107.56237,12.73092],[107.56179,12.73143],[107.56169,12.73152],[107.56155,12.73165],[107.56076,12.73245],[107.56064,12.73258],[107.56052,12.73272],[107.5604,12.73286],[107.56029,12.73301],[107.56019,12.73316],[107.56009,12.73331],[107.56003,12.73342],[107.55947,12.73442],[107.55944,12.73447],[107.55936,12.73463],[107.55928,12.7348],[107.55921,12.73496],[107.55915,12.73513],[107.55909,12.73531],[107.55904,12.73548],[107.559,12.73566],[107.559,12.73568],[107.55861,12.7375],[107.55858,12.73765],[107.55855,12.73783],[107.55853,12.73801],[107.55852,12.73819],[107.55851,12.73837],[107.55851,12.73856],[107.55852,12.73874],[107.55854,12.73892],[107.55856,12.73909],[107.55859,12.73927],[107.5586,12.73931],[107.55895,12.74103],[107.55898,12.74117],[107.55903,12.74134],[107.55905,12.74143],[107.55924,12.74203],[107.5593,12.74231],[107.55916,12.74234],[107.55898,12.74238],[107.5588,12.74242],[107.55863,12.74248],[107.55846,12.74254],[107.55828,12.74261],[107.55812,12.74268],[107.55795,12.74276],[107.55779,12.74285],[107.55763,12.74294],[107.55748,12.74304],[107.55733,12.74314],[107.55718,12.74325],[107.55704,12.74337],[107.55691,12.74349],[107.55677,12.74362],[107.55665,12.74375],[107.55653,12.74389],[107.55641,12.74403],[107.55631,12.74418],[107.5562,12.74433],[107.55611,12.74448],[107.55602,12.74464],[107.55593,12.7448],[107.55589,12.74488],[107.55566,12.74537],[107.55563,12.74545],[107.55556,12.74562],[107.55549,12.74579],[107.55544,12.74596],[107.55539,12.74614],[107.55535,12.74631],[107.55531,12.74649],[107.55528,12.74667],[107.55526,12.74685],[107.55525,12.74703],[107.55525,12.74721],[107.55525,12.74735],[107.55525,12.74757],[107.55516,12.74807],[107.55515,12.74812],[107.55514,12.74816],[107.55498,12.74916],[107.55496,12.7493],[107.55494,12.74948],[107.55492,12.74966],[107.55492,12.74984],[107.55492,12.75002],[107.55493,12.7502],[107.55495,12.75038],[107.55497,12.75056],[107.555,12.75074],[107.55504,12.75091],[107.55508,12.75109],[107.55514,12.75126],[107.5552,12.75143],[107.5552,12.75145],[107.55525,12.75181],[107.55527,12.75196],[107.5553,12.75214],[107.55534,12.75232],[107.55538,12.75249],[107.5554,12.75255],[107.55543,12.75267],[107.55544,12.75268],[107.55542,12.75287],[107.55535,12.75303],[107.55528,12.7532],[107.55522,12.75337],[107.55516,12.75354],[107.55511,12.75371],[107.55507,12.75389],[107.55504,12.75407],[107.55501,12.75425],[107.55501,12.75427],[107.55489,12.75516],[107.55488,12.7553],[107.5548,12.75612],[107.55451,12.75743],[107.5545,12.75746],[107.55447,12.7576],[107.55431,12.75847],[107.55431,12.75851],[107.55428,12.75869],[107.55426,12.75887],[107.55425,12.75905],[107.55424,12.75915],[107.55422,12.75979],[107.55422,12.75986],[107.55422,12.76001],[107.55425,12.76108],[107.55425,12.76111],[107.55427,12.7617],[107.55428,12.76188],[107.55429,12.76206],[107.55432,12.76224],[107.55435,12.76242],[107.55438,12.76259],[107.55461,12.76354],[107.55461,12.76355],[107.55466,12.76373],[107.55471,12.7639],[107.55477,12.76407],[107.55477,12.76408],[107.55499,12.76467],[107.55516,12.76512],[107.55515,12.76545],[107.55508,12.76614],[107.55508,12.76614],[107.55507,12.76632],[107.55507,12.76644],[107.55505,12.76725],[107.55505,12.76731],[107.55505,12.76749],[107.55506,12.76767],[107.55506,12.76771],[107.55512,12.7685],[107.55514,12.76863],[107.55516,12.76881],[107.55517,12.76884],[107.55523,12.76924],[107.55524,12.76962],[107.55524,12.76965],[107.55525,12.76983],[107.55526,12.76993],[107.55532,12.7706],[107.55533,12.77068],[107.55535,12.77085],[107.55539,12.77103],[107.55542,12.77121],[107.55547,12.77138],[107.55552,12.77156],[107.55558,12.77173],[107.55565,12.7719],[107.55572,12.77206],[107.5558,12.77223],[107.55589,12.77239],[107.55596,12.77251],[107.55633,12.77311],[107.55635,12.77314],[107.55638,12.77319],[107.55698,12.77412],[107.55699,12.77414],[107.55717,12.77442],[107.55717,12.77442],[107.55712,12.77454],[107.55663,12.77496],[107.55662,12.77497],[107.55649,12.7751],[107.55636,12.77522],[107.55623,12.77535],[107.55611,12.77549],[107.556,12.77563],[107.55589,12.77578],[107.55578,12.77593],[107.55569,12.77608],[107.5556,12.77624],[107.55552,12.77639],[107.55517,12.77709],[107.55517,12.7771],[107.55509,12.77727],[107.55502,12.77743],[107.55496,12.7776],[107.5549,12.77777],[107.55485,12.77795],[107.55481,12.77812],[107.55478,12.7783],[107.55475,12.77848],[107.55474,12.77858],[107.55465,12.77939],[107.55464,12.77947],[107.55463,12.77965],[107.55462,12.77971],[107.55459,12.78051],[107.55459,12.78063],[107.55459,12.78069],[107.55459,12.7818],[107.55459,12.78192],[107.5546,12.7821],[107.55462,12.78228],[107.55464,12.78246],[107.55466,12.78254],[107.55484,12.78359],[107.55493,12.78421],[107.55496,12.7849],[107.55497,12.78499],[107.55498,12.78509],[107.55499,12.78527],[107.55502,12.78545],[107.55503,12.78553],[107.55522,12.78662],[107.55524,12.78672],[107.55527,12.7869],[107.55532,12.78707],[107.55533,12.7871],[107.5555,12.78769],[107.55554,12.78784],[107.5556,12.78801],[107.55567,12.78818],[107.55574,12.78834],[107.55582,12.7885],[107.55591,12.78866],[107.556,12.78882],[107.5561,12.78897],[107.55621,12.78912],[107.55625,12.78917],[107.55655,12.78957],[107.55662,12.78966],[107.55674,12.7898],[107.55686,12.78993],[107.55699,12.79006],[107.55712,12.79019],[107.55726,12.7903],[107.5574,12.79042],[107.55755,12.79053],[107.55757,12.79054],[107.5575,12.79099],[107.55741,12.79119],[107.55713,12.79182],[107.55712,12.79184],[107.5571,12.79188],[107.55679,12.7926],[107.55673,12.79274],[107.55655,12.79301],[107.55633,12.79331],[107.55607,12.79357],[107.55603,12.79361],[107.5559,12.79374],[107.55578,12.79387],[107.55567,12.79402],[107.55556,12.79416],[107.55546,12.79431],[107.55544,12.79435],[107.55519,12.79473],[107.55511,12.79486],[107.55502,12.79501],[107.55494,12.79517],[107.55486,12.79534],[107.55479,12.79551],[107.55473,12.79568],[107.55467,12.79585],[107.55462,12.79602],[107.55458,12.7962],[107.55455,12.79638],[107.55452,12.79655],[107.5545,12.79673],[107.55445,12.7973],[107.55443,12.79748],[107.55443,12.79766],[107.55443,12.79782],[107.55445,12.79854],[107.5544,12.79902],[107.55433,12.79929],[107.55425,12.79929],[107.55407,12.79931],[107.55389,12.79934],[107.55371,12.79937],[107.55353,12.79941],[107.55335,12.79946],[107.55317,12.79951],[107.553,12.79957],[107.55283,12.79964],[107.55266,12.79971],[107.55249,12.79979],[107.55233,12.79988],[107.55217,12.79997],[107.55202,12.80007],[107.55187,12.80017],[107.55173,12.80029],[107.55158,12.8004],[107.55145,12.80052],[107.55132,12.80065],[107.55119,12.80078],[107.55107,12.80092],[107.55106,12.80093],[107.55071,12.80135],[107.55024,12.80185],[107.55016,12.80193],[107.55014,12.80195],[107.54992,12.80219],[107.5494,12.80265],[107.54928,12.80275],[107.54915,12.80288],[107.54903,12.80301],[107.54891,12.80315],[107.54879,12.80329],[107.54869,12.80344],[107.54858,12.80359],[107.54849,12.80374],[107.5484,12.8039],[107.54831,12.80406],[107.54824,12.80422],[107.54817,12.80439],[107.5481,12.80456],[107.54805,12.80473],[107.548,12.80491],[107.54796,12.80508],[107.54792,12.80526],[107.5479,12.80542],[107.54778,12.80624],[107.54778,12.80626],[107.54776,12.80644],[107.54775,12.80662],[107.54774,12.8068],[107.54774,12.80698],[107.54775,12.80716],[107.54777,12.80734],[107.54779,12.80752],[107.54781,12.80764],[107.54814,12.80941],[107.54815,12.80946],[107.54819,12.80964],[107.54823,12.80981],[107.54829,12.80999],[107.54829,12.81],[107.54815,12.81039],[107.54815,12.8104],[107.5481,12.81053],[107.54792,12.81111],[107.54791,12.81115],[107.54786,12.81132],[107.54782,12.8115],[107.54778,12.81168],[107.54775,12.81185],[107.54773,12.81203],[107.54772,12.81221],[107.54772,12.81239],[107.54772,12.81258],[107.54773,12.81276],[107.54774,12.81294],[107.54777,12.81312],[107.5478,12.81329],[107.54784,12.81347],[107.54787,12.81361],[107.54824,12.81494],[107.54825,12.81497],[107.5483,12.81515],[107.54836,12.81532],[107.54842,12.81547],[107.5476,12.81627],[107.54755,12.81632],[107.54742,12.81645],[107.5473,12.81659],[107.54719,12.81673],[107.54708,12.81688],[107.54698,12.81703],[107.54688,12.81718],[107.54686,12.81721],[107.54671,12.81719],[107.54653,12.81717],[107.54634,12.81716],[107.54616,12.81716],[107.54597,12.81716],[107.54579,12.81717],[107.54561,12.81719],[107.54542,12.81722],[107.54524,12.81725],[107.54506,12.81729],[107.54489,12.81733],[107.54471,12.81739],[107.54454,12.81745],[107.54436,12.81751],[107.5442,12.81759],[107.54403,12.81767],[107.544,12.81769],[107.54343,12.81798],[107.5433,12.81805],[107.54315,12.81814],[107.54299,12.81824],[107.54284,12.81835],[107.5427,12.81846],[107.54256,12.81857],[107.54242,12.8187],[107.54229,12.81882],[107.54216,12.81896],[107.54204,12.81909],[107.54193,12.81923],[107.54182,12.81938],[107.54172,12.81953],[107.54162,12.81968],[107.54153,12.81984],[107.54145,12.82],[107.54137,12.82017],[107.5413,12.82033],[107.54124,12.8205],[107.54118,12.82068],[107.54113,12.82085],[107.54109,12.82103],[107.54106,12.8212],[107.54105,12.82121],[107.54093,12.82192],[107.5409,12.8221],[107.54089,12.82221],[107.54088,12.82233],[107.54084,12.82237],[107.54008,12.82327],[107.54007,12.82328],[107.53996,12.82342],[107.53985,12.82357],[107.53935,12.82427],[107.53925,12.82442],[107.53915,12.82457],[107.53906,12.82473],[107.53898,12.82489],[107.5389,12.82505],[107.53883,12.82522],[107.53877,12.82539],[107.53871,12.82556],[107.53867,12.82574],[107.53864,12.82582],[107.53862,12.82594],[107.53856,12.82607],[107.53853,12.82613],[107.5385,12.82617],[107.53839,12.82631],[107.53828,12.82646],[107.53818,12.82661],[107.53808,12.82676],[107.53799,12.82692],[107.53791,12.82708],[107.53783,12.82725],[107.53776,12.82741],[107.5377,12.82758],[107.53764,12.82775],[107.53759,12.82793],[107.53755,12.8281],[107.53751,12.82828],[107.53751,12.8283],[107.53739,12.82903],[107.53736,12.82919],[107.53734,12.82937],[107.53733,12.82955],[107.53732,12.82973],[107.53733,12.82991],[107.53734,12.83009],[107.53735,12.83027],[107.53735,12.83028],[107.53744,12.83104],[107.53746,12.83121],[107.53747,12.83127],[107.53742,12.83129],[107.53727,12.83139],[107.53711,12.83149],[107.53696,12.83159],[107.53682,12.8317],[107.53669,12.83181],[107.53617,12.83225],[107.53616,12.83226],[107.53602,12.83239],[107.536,12.83241],[107.53589,12.83251],[107.53575,12.83256],[107.53557,12.83262],[107.53555,12.83263],[107.5348,12.83295],[107.53465,12.83301],[107.53449,12.83309],[107.53439,12.83314],[107.53404,12.83334],[107.53371,12.83343],[107.5336,12.83347],[107.53343,12.83353],[107.53326,12.83359],[107.53309,12.83367],[107.53308,12.83367],[107.53237,12.834],[107.53222,12.83408],[107.53206,12.83416],[107.53194,12.83423],[107.53147,12.83452],[107.53143,12.83454],[107.53127,12.83464],[107.53112,12.83474],[107.53098,12.83486],[107.53092,12.8349],[107.53075,12.83495],[107.53059,12.83501],[107.53052,12.83501],[107.53034,12.83501],[107.53016,12.83502],[107.52997,12.83504],[107.52979,12.83507],[107.52971,12.83508],[107.52952,12.83512],[107.5294,12.8351],[107.52922,12.83509],[107.52904,12.83509],[107.52885,12.83509],[107.52867,12.8351],[107.52849,12.83512],[107.5283,12.83515],[107.52812,12.83518],[107.52794,12.83522],[107.52776,12.83527],[107.52759,12.83532],[107.52755,12.83533],[107.52722,12.83544],[107.52674,12.83552],[107.52661,12.83555],[107.52643,12.83559],[107.52625,12.83563],[107.52607,12.83569],[107.5259,12.83575],[107.52584,12.83577],[107.52531,12.83597],[107.5253,12.83598],[107.52496,12.8361],[107.52485,12.83615],[107.52468,12.83623],[107.52451,12.83631],[107.52435,12.83639],[107.52419,12.83649],[107.52404,12.83658],[107.52389,12.83669],[107.52374,12.8368],[107.5236,12.83692],[107.52347,12.83704],[107.52334,12.83717],[107.52321,12.8373],[107.52309,12.83743],[107.52298,12.83758],[107.52287,12.83772],[107.52276,12.83787],[107.52267,12.83803],[107.52258,12.83818],[107.52249,12.83835],[107.52242,12.83851],[107.52235,12.83868],[107.52228,12.83885],[107.52223,12.83902],[107.52218,12.83919],[107.52214,12.83937],[107.5221,12.83955],[107.52207,12.83973],[107.52205,12.8399],[107.52204,12.84009],[107.52204,12.84027],[107.52204,12.84027],[107.52203,12.84064],[107.52187,12.84097],[107.52185,12.841],[107.52177,12.84117],[107.5217,12.84133],[107.52164,12.8415],[107.52158,12.84167],[107.52153,12.84185],[107.52149,12.84202],[107.52146,12.8422],[107.52145,12.84224],[107.52132,12.84305],[107.52101,12.84455],[107.52098,12.84469],[107.52095,12.84487],[107.52093,12.84504],[107.52085,12.84587],[107.52085,12.84587],[107.52084,12.84605],[107.52083,12.84623],[107.52084,12.84639],[107.5207,12.84651],[107.52057,12.84663],[107.52044,12.84677],[107.52032,12.8469],[107.52029,12.84695],[107.51987,12.84745],[107.51979,12.84755],[107.51978,12.84757],[107.51951,12.84792],[107.51948,12.84796],[107.51938,12.84809],[107.51928,12.84822],[107.51918,12.84837],[107.51908,12.84853],[107.51907,12.84856],[107.51882,12.84898],[107.51874,12.84911],[107.51866,12.84927],[107.51858,12.84943],[107.51851,12.8496],[107.51845,12.84977],[107.51839,12.84994],[107.51834,12.85012],[107.5183,12.85029],[107.51827,12.85047],[107.51824,12.85065],[107.51823,12.85071],[107.51812,12.85075],[107.51794,12.85082],[107.51778,12.85089],[107.51775,12.8509],[107.51753,12.85101],[107.51674,12.85124],[107.51664,12.85127],[107.51647,12.85133],[107.5163,12.8514],[107.51617,12.85146],[107.51585,12.8516],[107.51529,12.85177],[107.51517,12.8518],[107.515,12.85186],[107.51497,12.85188],[107.51454,12.85192],[107.51451,12.85193],[107.51433,12.85195],[107.51427,12.85196],[107.51392,12.85202],[107.513,12.85214],[107.51287,12.85216],[107.51269,12.85219],[107.51267,12.8522],[107.51175,12.85238],[107.5116,12.85242],[107.51142,12.85247],[107.51124,12.85252],[107.51107,12.85258],[107.5109,12.85265],[107.51086,12.85266],[107.51017,12.85296],[107.51004,12.85301],[107.50987,12.85309],[107.50971,12.85318],[107.50955,12.85327],[107.5094,12.85337],[107.50933,12.85342],[107.5087,12.85386],[107.50861,12.85392],[107.50846,12.85403],[107.50832,12.85415],[107.50819,12.85427],[107.50806,12.8544],[107.50793,12.85453],[107.50781,12.85467],[107.5077,12.85481],[107.50759,12.85495],[107.50749,12.8551],[107.50739,12.85526],[107.5073,12.85542],[107.50722,12.85558],[107.50714,12.85574],[107.50707,12.85591],[107.507,12.85608],[107.50695,12.85625],[107.5069,12.85643],[107.50686,12.8566],[107.50682,12.85678],[107.50679,12.85696],[107.50677,12.85714],[107.50677,12.85716],[107.50672,12.85773],[107.50671,12.85792],[107.50667,12.85834],[107.50666,12.8585],[107.50665,12.85868],[107.50665,12.85886],[107.50666,12.85905],[107.50668,12.85923],[107.5067,12.8594],[107.50673,12.85958],[107.50676,12.85973],[107.507,12.86075],[107.50701,12.86079],[107.50706,12.86096],[107.50711,12.86114],[107.50717,12.86131],[107.50723,12.86148],[107.50728,12.86159],[107.5078,12.86273],[107.50824,12.86372],[107.50855,12.86443],[107.5082,12.86507],[107.5082,12.86508],[107.50811,12.86524],[107.50808,12.86531],[107.50788,12.86572],[107.5074,12.86574],[107.50738,12.86574],[107.5072,12.86575],[107.50702,12.86577],[107.50683,12.8658],[107.50668,12.86582],[107.50548,12.86605],[107.50546,12.86606],[107.50528,12.8661],[107.5051,12.86614],[107.50492,12.8662],[107.50475,12.86626],[107.50458,12.86633],[107.50441,12.8664],[107.50424,12.86648],[107.50408,12.86657],[107.50403,12.8666],[107.5028,12.86731],[107.50269,12.86737],[107.50253,12.86747],[107.50238,12.86758],[107.50229,12.86765],[107.50071,12.86887],[107.50066,12.86891],[107.50052,12.86902],[107.50038,12.86915],[107.50025,12.86927],[107.50012,12.86941],[107.5,12.86954],[107.49989,12.86968],[107.49978,12.86983],[107.49968,12.86998],[107.49958,12.87014],[107.49949,12.87029],[107.49947,12.87033],[107.49928,12.87069],[107.49891,12.87134],[107.4983,12.87221],[107.49824,12.87231],[107.49814,12.87246],[107.49811,12.87251],[107.49802,12.87267],[107.49747,12.87322],[107.49682,12.87383],[107.49669,12.87395],[107.49581,12.8747],[107.49568,12.87482],[107.49555,12.87495],[107.49542,12.87508],[107.4953,12.87522],[107.49519,12.87536],[107.49508,12.87551],[107.49497,12.87566],[107.49488,12.87581],[107.49479,12.87597],[107.4947,12.87613],[107.49463,12.87629],[107.49456,12.87646],[107.49449,12.87663],[107.49444,12.8768],[107.49443,12.87684],[107.49429,12.87729],[107.49426,12.87742],[107.49421,12.8776],[107.49418,12.87778],[107.49417,12.87784],[107.49389,12.87958],[107.49344,12.88218],[107.49341,12.88235],[107.49339,12.88253],[107.49338,12.88262],[107.49327,12.88414],[107.49299,12.88613],[107.49299,12.88616],[107.49297,12.88634],[107.49296,12.88646],[107.49288,12.88774],[107.49287,12.88777],[107.49281,12.88886],[107.49276,12.8893],[107.49256,12.88934],[107.49239,12.88938],[107.49221,12.88942],[107.49203,12.88948],[107.49186,12.88954],[107.49171,12.88959],[107.49098,12.8899],[107.49095,12.8899],[107.49078,12.88998],[107.49062,12.89006],[107.49046,12.89015],[107.4903,12.89024],[107.49014,12.89034],[107.48999,12.89044],[107.48985,12.89055],[107.48971,12.89067],[107.48957,12.89079],[107.48944,12.89092],[107.48932,12.89105],[107.4892,12.89119],[107.48908,12.89133],[107.48897,12.89148],[107.4889,12.89159],[107.48842,12.8923],[107.48839,12.89234],[107.4883,12.89249],[107.48821,12.89265],[107.48812,12.89281],[107.48805,12.89298],[107.48798,12.89314],[107.48791,12.89331],[107.48786,12.89348],[107.48782,12.89362],[107.48753,12.89469],[107.48752,12.89473],[107.48748,12.8949],[107.48744,12.89508],[107.48741,12.89526],[107.48739,12.89544],[107.48738,12.89557],[107.48728,12.89714],[107.48728,12.89719],[107.48728,12.89737],[107.48728,12.89755],[107.48729,12.89773],[107.4873,12.89791],[107.48733,12.89809],[107.48736,12.89827],[107.4874,12.89845],[107.48744,12.89862],[107.48746,12.8987],[107.4878,12.8998],[107.48783,12.8999],[107.48789,12.90007],[107.48795,12.90024],[107.48803,12.9004],[107.48811,12.90057],[107.48819,12.90073],[107.48822,12.90077],[107.48885,12.90186],[107.48892,12.90197],[107.48902,12.90212],[107.48913,12.90227],[107.48924,12.90241],[107.48936,12.90255],[107.48948,12.90269],[107.48961,12.90282],[107.48964,12.90285],[107.49069,12.90385],[107.49079,12.90394],[107.49092,12.90406],[107.49107,12.90417],[107.49122,12.90428],[107.49135,12.90437],[107.49154,12.90449],[107.49147,12.9046],[107.49142,12.90468],[107.49106,12.90532],[107.49102,12.90539],[107.49093,12.90555],[107.49086,12.90572],[107.49079,12.90589],[107.49072,12.90606],[107.49067,12.90623],[107.49062,12.9064],[107.49057,12.90658],[107.49055,12.9067],[107.49044,12.9073],[107.49042,12.90736],[107.4904,12.90754],[107.49038,12.90772],[107.49036,12.9079],[107.49036,12.90808],[107.49036,12.90826],[107.49037,12.90844],[107.49039,12.90862],[107.49041,12.9088],[107.49042,12.90885],[107.49052,12.9095],[107.49055,12.90964],[107.49059,12.90981],[107.49063,12.90999],[107.49068,12.91016],[107.49074,12.91033],[107.49081,12.9105],[107.49082,12.91053],[107.49125,12.91153],[107.4916,12.91267],[107.49162,12.91274],[107.49168,12.91291],[107.49175,12.91308],[107.49182,12.91325],[107.4919,12.91341],[107.49199,12.91357],[107.49208,12.91373],[107.49218,12.91388],[107.49229,12.91403],[107.4924,12.91417],[107.49252,12.91431],[107.49264,12.91444],[107.49277,12.91457],[107.4929,12.9147],[107.49304,12.91482],[107.49318,12.91493],[107.49333,12.91504],[107.49348,12.91514],[107.49364,12.91524],[107.4938,12.91533],[107.49396,12.91541],[107.49412,12.91548],[107.49402,12.91557],[107.49388,12.91569],[107.49375,12.91582],[107.49367,12.9159],[107.4931,12.9165],[107.49269,12.91693],[107.49257,12.91705],[107.49245,12.91718],[107.49234,12.91733],[107.49224,12.91746],[107.49198,12.91782],[107.49197,12.91783],[107.49187,12.91798],[107.49177,12.91813],[107.49168,12.91829],[107.4916,12.91845],[107.49135,12.91897],[107.49127,12.91913],[107.4912,12.9193],[107.49114,12.91947],[107.49108,12.91964],[107.49103,12.91981],[107.49092,12.91987],[107.49076,12.91996],[107.49061,12.92006],[107.49046,12.92017],[107.49031,12.92028],[107.49017,12.92039],[107.49004,12.92052],[107.4899,12.92064],[107.48978,12.92077],[107.48966,12.92091],[107.48954,12.92105],[107.48944,12.9212],[107.48933,12.92135],[107.48924,12.9215],[107.48915,12.92166],[107.48906,12.92182],[107.48902,12.9219],[107.48872,12.92255],[107.48868,12.92263],[107.48861,12.9228],[107.48855,12.92297],[107.48849,12.92314],[107.48845,12.92331],[107.4884,12.92349],[107.48837,12.92367],[107.48834,12.92385],[107.48833,12.92391],[107.48816,12.92535],[107.48815,12.92546],[107.48814,12.92564],[107.48813,12.92582],[107.48813,12.926],[107.48814,12.92618],[107.48816,12.92636],[107.48817,12.92642],[107.48831,12.92757],[107.48833,12.92769],[107.48836,12.92787],[107.4884,12.92804],[107.48844,12.92822],[107.4885,12.92839],[107.48856,12.92856],[107.48862,12.92873],[107.48869,12.92889],[107.48867,12.92892],[107.4886,12.92909],[107.48854,12.92926],[107.48848,12.92943],[107.48843,12.9296],[107.48839,12.92978],[107.48836,12.92996],[107.48833,12.93014],[107.48831,12.93031],[107.4883,12.9305],[107.48829,12.93068],[107.48829,12.93086],[107.4883,12.93104],[107.48831,12.93117],[107.48836,12.93161],[107.48843,12.93237],[107.48844,12.93242],[107.48846,12.9326],[107.48849,12.93278],[107.48852,12.93291],[107.48857,12.93311],[107.48854,12.93329],[107.48852,12.93347],[107.48851,12.93365],[107.4885,12.93383],[107.4885,12.93401],[107.48851,12.93419],[107.48853,12.93437],[107.48855,12.93455],[107.48858,12.93473],[107.48859,12.93476],[107.48867,12.93515],[107.48856,12.93526],[107.48851,12.93531],[107.48778,12.93614],[107.4877,12.93623],[107.48759,12.93637],[107.48749,12.93651],[107.48733,12.93673],[107.48689,12.93704],[107.48607,12.93753],[107.48603,12.93756],[107.48588,12.93766],[107.48573,12.93776],[107.48563,12.93784],[107.48553,12.93785],[107.48535,12.93788],[107.48517,12.93791],[107.48499,12.93795],[107.48481,12.93799],[107.48463,12.93805],[107.48446,12.93811],[107.48429,12.93817],[107.48412,12.93825],[107.48396,12.93833],[107.48379,12.93841],[107.48364,12.93851],[107.48348,12.93861],[107.48333,12.93871],[107.48319,12.93882],[107.48304,12.93894],[107.48291,12.93906],[107.48278,12.93919],[107.48265,12.93932],[107.48262,12.93935],[107.48182,12.94025],[107.48173,12.94036],[107.48161,12.9405],[107.4815,12.94064],[107.4814,12.94079],[107.48131,12.94095],[107.48122,12.9411],[107.48113,12.94127],[107.48105,12.94143],[107.48098,12.9416],[107.48093,12.94174],[107.48047,12.94304],[107.48046,12.94307],[107.4804,12.94324],[107.48035,12.94341],[107.48031,12.94359],[107.48028,12.94377],[107.48025,12.94394],[107.48023,12.94412],[107.48021,12.9443],[107.48021,12.94448],[107.48021,12.94467],[107.48022,12.94485],[107.48024,12.94503],[107.48026,12.94521],[107.48029,12.94538],[107.48033,12.94556],[107.48038,12.94574],[107.48043,12.94591],[107.48049,12.94608],[107.48052,12.94615],[107.48048,12.94631],[107.48046,12.94649],[107.48031,12.94759],[107.48029,12.94777],[107.48028,12.94795],[107.48027,12.94813],[107.48027,12.94832],[107.48028,12.9485],[107.4803,12.94868],[107.48032,12.94886],[107.48035,12.94903],[107.48039,12.94921],[107.48044,12.94939],[107.48049,12.94956],[107.48055,12.94973],[107.48062,12.9499],[107.48069,12.95006],[107.48077,12.95023],[107.48086,12.95039],[107.48095,12.95054],[107.48105,12.95069],[107.48115,12.95084],[107.48127,12.95099],[107.48138,12.95113],[107.4815,12.95126],[107.48149,12.95131],[107.48144,12.95149],[107.48139,12.95167],[107.48136,12.95182],[107.48118,12.95283],[107.48118,12.95285],[107.48115,12.95303],[107.48113,12.95321],[107.48112,12.95339],[107.48111,12.95357],[107.48111,12.95375],[107.48112,12.95393],[107.48114,12.95411],[107.48116,12.95429],[107.48119,12.95447],[107.48123,12.95465],[107.48128,12.95482],[107.48133,12.955],[107.48139,12.95517],[107.48146,12.95534],[107.48153,12.9555],[107.48161,12.95566],[107.4817,12.95582],[107.48179,12.95598],[107.48189,12.95613],[107.48199,12.95628],[107.48205,12.95636],[107.48204,12.95641],[107.48202,12.95659],[107.482,12.95677],[107.48198,12.95695],[107.48198,12.95713],[107.48198,12.95715],[107.48197,12.95845],[107.48197,12.9586],[107.48198,12.95879],[107.482,12.95897],[107.48202,12.95914],[107.48205,12.95932],[107.48206,12.95935],[107.4823,12.96053],[107.4823,12.96056],[107.48265,12.96222],[107.48268,12.96234],[107.48272,12.96252],[107.48277,12.96269],[107.48283,12.96286],[107.4829,12.96303],[107.48297,12.9632],[107.48305,12.96336],[107.48314,12.96352],[107.48323,12.96368],[107.48332,12.96381],[107.48403,12.96486],[107.48404,12.96487],[107.48414,12.96502],[107.48414,12.96502],[107.48403,12.96517],[107.48394,12.96533],[107.48385,12.96549],[107.48376,12.96565],[107.4837,12.96578],[107.48313,12.96703],[107.48312,12.96706],[107.48305,12.96723],[107.48298,12.9674],[107.48293,12.96757],[107.48288,12.96775],[107.48284,12.96792],[107.4828,12.9681],[107.48277,12.96828],[107.48275,12.96846],[107.48274,12.96864],[107.48274,12.96882],[107.48274,12.969],[107.48275,12.96918],[107.48276,12.96936],[107.48279,12.96954],[107.48282,12.96972],[107.48285,12.96986],[107.48305,12.97074],[107.48306,12.97078],[107.4831,12.97095],[107.48316,12.97113],[107.48322,12.9713],[107.48328,12.97147],[107.48336,12.97163],[107.48344,12.9718],[107.48352,12.97196],[107.4836,12.97208],[107.48435,12.97331],[107.48437,12.97334],[107.48447,12.97349],[107.48458,12.97364],[107.48469,12.97378],[107.48481,12.97392],[107.48493,12.97405],[107.48506,12.97418],[107.48519,12.97431],[107.48533,12.97443],[107.48547,12.97454],[107.48562,12.97465],[107.48577,12.97475],[107.48579,12.97476],[107.48718,12.97565],[107.48732,12.97574],[107.48748,12.97583],[107.48765,12.97591],[107.48781,12.97599],[107.4879,12.97603],[107.4896,12.97673],[107.48964,12.97675],[107.49147,12.97749],[107.49151,12.97751],[107.49168,12.97757],[107.49186,12.97763],[107.49204,12.97768],[107.49222,12.97772],[107.49239,12.97776],[107.49385,12.97802],[107.49446,12.97819],[107.49457,12.97822],[107.49475,12.97827],[107.49493,12.9783],[107.49511,12.97833],[107.49524,12.97835],[107.49494,12.97862],[107.49488,12.97867],[107.49475,12.9788],[107.49462,12.97893],[107.4945,12.97907],[107.49439,12.97921],[107.49428,12.97935],[107.49418,12.9795],[107.49408,12.97966],[107.49399,12.97981],[107.49391,12.97998],[107.49383,12.98014],[107.49352,12.98084],[107.49345,12.98101],[107.49339,12.98118],[107.49333,12.98135],[107.49328,12.98152],[107.49324,12.98167],[107.49309,12.98234],[107.49307,12.98244],[107.49302,12.9825],[107.49292,12.98265],[107.49282,12.9828],[107.49273,12.98296],[107.49265,12.98312],[107.49257,12.98329],[107.4925,12.98345],[107.49244,12.98362],[107.49238,12.9838],[107.49233,12.98397],[107.49229,12.98415],[107.49225,12.98432],[107.49223,12.9845],[107.49222,12.98454],[107.49216,12.98503],[107.49207,12.98571],[107.49189,12.98634],[107.49185,12.98647],[107.49181,12.98664],[107.49178,12.98682],[107.49175,12.987],[107.49173,12.98718],[107.49172,12.98736],[107.49171,12.98754],[107.49171,12.98772],[107.49171,12.98773],[107.49174,12.98858],[107.49175,12.98875],[107.49176,12.98893],[107.49179,12.98911],[107.49182,12.98929],[107.49186,12.98947],[107.4919,12.98964],[107.49196,12.98981],[107.49198,12.98988],[107.49224,12.99065],[107.49227,12.99071],[107.49256,12.99153],[107.49257,12.99155],[107.49284,12.9923],[107.49285,12.99232],[107.49292,12.99249],[107.49299,12.99265],[107.49307,12.99282],[107.49316,12.99298],[107.4934,12.9934],[107.49354,12.99396],[107.49363,12.99483],[107.49363,12.99489],[107.49366,12.99507],[107.49369,12.99525],[107.4937,12.9953],[107.49356,12.99535],[107.49339,12.99542],[107.49322,12.99549],[107.49311,12.99554],[107.49238,12.99591],[107.49168,12.9961],[107.4908,12.99631],[107.49062,12.99636],[107.49044,12.99641],[107.49027,12.99647],[107.4901,12.99654],[107.48993,12.99661],[107.48976,12.99669],[107.4896,12.99678],[107.48944,12.99687],[107.48929,12.99697],[107.48914,12.99708],[107.48904,12.99715],[107.48867,12.99744],[107.48862,12.99748],[107.48848,12.99759],[107.48834,12.99772],[107.48821,12.99784],[107.48808,12.99797],[107.48796,12.99811],[107.48785,12.99825],[107.48774,12.9984],[107.48764,12.99855],[107.48754,12.9987],[107.48745,12.99886],[107.48737,12.99902],[107.48729,12.99919],[107.48722,12.99935],[107.48717,12.9995],[107.48716,12.99953],[107.4871,12.99963],[107.48701,12.99978],[107.48692,12.99994],[107.48684,13.00011],[107.48677,13.00028],[107.48671,13.00045],[107.48666,13.00062],[107.48661,13.00079],[107.48656,13.00097],[107.48653,13.00115],[107.4865,13.00132],[107.48648,13.0015],[107.48647,13.00168],[107.48647,13.00174],[107.48642,13.00291],[107.4864,13.00351],[107.48639,13.00363],[107.48639,13.00381],[107.4864,13.00396],[107.48646,13.00494],[107.48647,13.00497],[107.48648,13.00515],[107.48649,13.00523],[107.48656,13.00578],[107.48658,13.00587],[107.48661,13.00605],[107.48665,13.00623],[107.48669,13.0064],[107.4867,13.00642],[107.4869,13.00714],[107.48695,13.00731],[107.48699,13.00742],[107.48717,13.00792],[107.48719,13.00797],[107.48724,13.0081],[107.48757,13.00891],[107.48766,13.00927],[107.48784,13.01019],[107.48788,13.01033],[107.48792,13.01051],[107.48797,13.01068],[107.48803,13.01085],[107.48808,13.01097],[107.48817,13.0112],[107.48802,13.01146],[107.488,13.0115],[107.48792,13.01166],[107.48784,13.01183],[107.48777,13.012],[107.48771,13.01217],[107.48768,13.01224],[107.48731,13.01337],[107.48728,13.01347],[107.48723,13.01364],[107.48719,13.01382],[107.48715,13.014],[107.48715,13.014],[107.48703,13.01471],[107.48698,13.01498],[107.48684,13.01581],[107.48681,13.01599],[107.48679,13.01617],[107.48678,13.01635],[107.48677,13.01649],[107.48675,13.01752],[107.48675,13.01756],[107.48675,13.01774],[107.48676,13.01792],[107.48678,13.0181],[107.4868,13.01828],[107.48683,13.01846],[107.48687,13.01864],[107.48692,13.01881],[107.48697,13.01899],[107.48703,13.01916],[107.48705,13.01921],[107.48704,13.01926],[107.48699,13.01944],[107.48696,13.01961],[107.48693,13.01979],[107.48691,13.01997],[107.4869,13.02015],[107.48689,13.02033],[107.4869,13.02051],[107.4869,13.0207],[107.48692,13.02088],[107.48694,13.02105],[107.48698,13.02123],[107.48701,13.02141],[107.48706,13.02158],[107.48711,13.02176],[107.48717,13.02193],[107.48724,13.0221],[107.48731,13.02226],[107.48739,13.02243],[107.48748,13.02259],[107.48757,13.02274],[107.48767,13.02289],[107.48778,13.02304],[107.48789,13.02319],[107.48801,13.02333],[107.48806,13.02338],[107.48863,13.02401],[107.4887,13.02409],[107.48883,13.02422],[107.48896,13.02435],[107.4891,13.02446],[107.48919,13.02453],[107.48921,13.02456],[107.48932,13.02471],[107.48944,13.02485],[107.48956,13.02498],[107.48969,13.02511],[107.48973,13.02522],[107.48979,13.02539],[107.48985,13.02551],[107.48988,13.02559],[107.48988,13.02561],[107.48986,13.02579],[107.48985,13.02597],[107.48984,13.02615],[107.48984,13.02633],[107.48985,13.02651],[107.48987,13.02669],[107.48989,13.02687],[107.48992,13.02705],[107.48996,13.02722],[107.49001,13.0274],[107.49006,13.02757],[107.49012,13.02774],[107.49014,13.02779],[107.49027,13.02814],[107.49032,13.02826],[107.49039,13.02842],[107.49048,13.02859],[107.49056,13.02875],[107.49066,13.0289],[107.49075,13.02906],[107.49086,13.0292],[107.49097,13.02935],[107.49109,13.02949],[107.49121,13.02962],[107.49134,13.02975],[107.49147,13.02988],[107.49161,13.03],[107.49176,13.03011],[107.4919,13.03022],[107.49196,13.03025],[107.4952,13.03904],[107.50509,13.06586],[107.52177,13.11141],[107.52715,13.12634],[107.53362,13.14426],[107.53363,13.14429],[107.54372,13.17161],[107.54373,13.17162],[107.54376,13.17171],[107.55271,13.19423],[107.55275,13.19431],[107.55275,13.19433],[107.56521,13.22363],[107.57317,13.2423],[107.57319,13.24235],[107.57774,13.25265],[107.57776,13.25271],[107.57779,13.25288],[107.57784,13.25305],[107.57789,13.25322],[107.57795,13.2534],[107.57802,13.25356],[107.57809,13.25373],[107.57817,13.25389],[107.5782,13.25395],[107.57826,13.25406],[107.58086,13.26021],[107.58919,13.27994],[107.59567,13.29586],[107.59911,13.30432],[107.59913,13.30437],[107.5992,13.30453],[107.59928,13.3047],[107.59937,13.30485],[107.59946,13.30501],[107.59956,13.30516],[107.59967,13.30531],[107.59978,13.30545],[107.5999,13.30559],[107.60002,13.30573],[107.60015,13.30586],[107.60028,13.30598],[107.60042,13.3061],[107.60057,13.30622],[107.60071,13.30632],[107.60087,13.30643],[107.60102,13.30652],[107.60118,13.30661],[107.60135,13.30669],[107.60151,13.30677],[107.60168,13.30684],[107.60186,13.30691],[107.60203,13.30696],[107.60221,13.30701],[107.60239,13.30706],[107.60257,13.30709],[107.60275,13.30712],[107.60293,13.30714],[107.60312,13.30716],[107.6033,13.30716],[107.60349,13.30716],[107.60367,13.30716],[107.60386,13.30714],[107.60404,13.30712],[107.60422,13.30709],[107.6044,13.30705],[107.60458,13.30701],[107.60476,13.30696],[107.60493,13.3069],[107.60511,13.30684],[107.60528,13.30677],[107.60544,13.30669],[107.60561,13.30661],[107.60577,13.30652],[107.60592,13.30642],[107.60607,13.30632],[107.60622,13.30621],[107.60637,13.3061],[107.6065,13.30598],[107.60664,13.30586],[107.60677,13.30573],[107.60689,13.30559],[107.60701,13.30545],[107.60712,13.30531],[107.60722,13.30516],[107.60732,13.30501],[107.60742,13.30485],[107.6075,13.30469],[107.60758,13.30453],[107.60766,13.30436],[107.60772,13.30419],[107.60778,13.30402],[107.60784,13.30385],[107.60788,13.30368],[107.60792,13.3035],[107.60795,13.30332],[107.60798,13.30314],[107.60799,13.30296],[107.608,13.30278],[107.608,13.3026],[107.608,13.30242],[107.60799,13.30224],[107.60796,13.30206],[107.60794,13.30188],[107.6079,13.3017],[107.60786,13.30153],[107.60781,13.30135],[107.60775,13.30118],[107.60769,13.30101],[107.60768,13.30097],[107.60424,13.29252],[107.59775,13.27657],[107.59772,13.27652],[107.58938,13.25676],[107.5867,13.25041],[107.58669,13.25038],[107.58668,13.25036],[107.58664,13.25018],[107.58659,13.25001],[107.58653,13.24984],[107.58647,13.24967],[107.5864,13.24951],[107.58166,13.23879],[107.57372,13.22015],[107.56129,13.1909],[107.55237,13.16848],[107.5423,13.14123],[107.53584,13.12333],[107.53045,13.10839],[107.53045,13.10837],[107.51376,13.0628],[107.51376,13.06279],[107.50386,13.03597],[107.50025,13.02617],[107.50021,13.02607],[107.50014,13.0259],[107.50006,13.02574],[107.49998,13.02558],[107.49993,13.0255],[107.49989,13.02537],[107.49983,13.0252],[107.49976,13.02504],[107.49968,13.02487],[107.4996,13.02471],[107.49951,13.02455],[107.49945,13.02445],[107.49925,13.02415],[107.49922,13.0241],[107.49925,13.02403],[107.49929,13.02385],[107.49933,13.02368],[107.49936,13.0235],[107.49939,13.02332],[107.4994,13.02314],[107.49941,13.02296],[107.49941,13.02278],[107.49941,13.0226],[107.4994,13.02242],[107.49938,13.02224],[107.49935,13.02206],[107.49931,13.02188],[107.49927,13.0217],[107.49924,13.0216],[107.49913,13.02122],[107.49911,13.02115],[107.49906,13.02098],[107.49899,13.02081],[107.49892,13.02064],[107.49885,13.02047],[107.49876,13.02031],[107.49867,13.02016],[107.49858,13.02],[107.49847,13.01985],[107.49837,13.01971],[107.49825,13.01956],[107.49813,13.01943],[107.498,13.01929],[107.49787,13.01917],[107.49774,13.01905],[107.4976,13.01893],[107.49745,13.01882],[107.4973,13.01871],[107.49715,13.01861],[107.4971,13.01859],[107.49707,13.01853],[107.49697,13.01838],[107.49687,13.01822],[107.49676,13.01808],[107.49665,13.01794],[107.49653,13.0178],[107.4964,13.01767],[107.49627,13.01754],[107.49617,13.01745],[107.49616,13.01742],[107.49612,13.01725],[107.49607,13.01708],[107.49602,13.01691],[107.496,13.01687],[107.49606,13.01652],[107.49606,13.01651],[107.49611,13.01623],[107.49618,13.01584],[107.49632,13.01543],[107.49651,13.01508],[107.49657,13.01496],[107.49662,13.01487],[107.49695,13.0142],[107.49698,13.01413],[107.49705,13.01396],[107.49712,13.01379],[107.49718,13.01362],[107.49723,13.01345],[107.49728,13.01327],[107.49732,13.0131],[107.49735,13.01292],[107.49747,13.01214],[107.49749,13.01196],[107.49751,13.01178],[107.49752,13.0116],[107.49752,13.01142],[107.49752,13.01124],[107.4975,13.01106],[107.49748,13.01088],[107.49748,13.01085],[107.49738,13.01012],[107.49735,13.00996],[107.49734,13.00991],[107.49724,13.00935],[107.49721,13.00922],[107.49717,13.00904],[107.49712,13.00887],[107.49706,13.0087],[107.497,13.00853],[107.49699,13.0085],[107.4968,13.00802],[107.49668,13.00743],[107.49666,13.00737],[107.49664,13.00727],[107.49646,13.00651],[107.49644,13.00643],[107.49639,13.00626],[107.49633,13.00609],[107.49627,13.00592],[107.49625,13.00588],[107.49583,13.00484],[107.49574,13.00457],[107.49568,13.00436],[107.49577,13.00433]]]}}]}