{
"type": "FeatureCollection",
"name": "Camera_Trap_Setup",
"crs": { "type": "name", "properties": { "name": "urn:ogc:def:crs:OGC:1.3:CRS84" } },
"features": [
{"type":"Feature","properties":{"type":"WAYPOINT","ident":"038","Latitude":12.907100999998468,"Longitude":107.48970599997354,"y_proj":1428174.15839,"x_proj":770164.24010199995,"comment":"CT21","display":null,"symbol":"Flag, Blue","dist":0.0,"proximity":null,"color":null,"altitude":199.52,"depth":0.0,"time":"2026/09/09 08:58:35","wpt_class":null,"sub_class":null,"attrib":null,"state":null,"country":null,"city":null,"address":null,"dtype":null,"filename":null,"ID":1},"geometry":{"type":"Point","coordinates":[107.489705999970553,12.907100999998294]}},
{"type":"Feature","properties":{"type":"WAYPOINT","ident":"041","Latitude":12.875088999998486,"Longitude":107.48464099997373,"y_proj":1424625.7461900001,"x_proj":769648.6116709999,"comment":"CT63","display":null,"symbol":"Flag, Blue","dist":0.0,"proximity":null,"color":null,"altitude":239.79,"depth":0.0,"time":"2026/09/10 07:39:45","wpt_class":null,"sub_class":null,"attrib":null,"state":null,"country":null,"city":null,"address":null,"dtype":null,"filename":null,"ID":2},"geometry":{"type":"Point","coordinates":[107.48464099997075,12.875088999998315]}},
{"type":"Feature","properties":{"type":"WAYPOINT","ident":"043","Latitude":12.865665999998482,"Longitude":107.48599199997363,"y_proj":1423584.23123,"x_proj":769805.40006000013,"comment":"CT31","display":null,"symbol":"Flag, Blue","dist":0.0,"proximity":null,"color":null,"altitude":244.56,"depth":0.0,"time":"2026/09/11 02:23:16","wpt_class":null,"sub_class":null,"attrib":null,"state":null,"country":null,"city":null,"address":null,"dtype":null,"filename":null,"ID":3},"geometry":{"type":"Point","coordinates":[107.485991999970651,12.86566599999831]}},
{"type":"Feature","properties":{"type":"WAYPOINT","ident":"044","Latitude":12.847324999998488,"Longitude":107.48509199997365,"y_proj":1421553.3151100001,"x_proj":769727.27085800003,"comment":"CT30","display":null,"symbol":"Flag, Blue","dist":0.0,"proximity":null,"color":null,"altitude":250.25,"depth":0.0,"time":"2026/09/11 03:05:01","wpt_class":null,"sub_class":null,"attrib":null,"state":null,"country":null,"city":null,"address":null,"dtype":null,"filename":null,"ID":4},"geometry":{"type":"Point","coordinates":[107.485091999970649,12.847324999998317]}},
{"type":"Feature","properties":{"type":"WAYPOINT","ident":"046","Latitude":12.842240999998442,"Longitude":107.49664799997301,"y_proj":1421002.75602,"x_proj":770987.71095700003,"comment":"CT33","display":null,"symbol":"Flag, Blue","dist":0.0,"proximity":null,"color":null,"altitude":241.3,"depth":0.0,"time":"2026/09/11 04:27:20","wpt_class":null,"sub_class":null,"attrib":null,"state":null,"country":null,"city":null,"address":null,"dtype":null,"filename":null,"ID":5},"geometry":{"type":"Point","coordinates":[107.496647999969909,12.842240999998261]}},
{"type":"Feature","properties":{"type":"WAYPOINT","ident":"047","Latitude":12.847063999998433,"Longitude":107.50016099997285,"y_proj":1421540.2682,"x_proj":771364.05199199996,"comment":"CT65","display":null,"symbol":"Flag, Blue","dist":0.0,"proximity":null,"color":null,"altitude":226.04,"depth":0.0,"time":"2026/09/11 05:11:23","wpt_class":null,"sub_class":null,"attrib":null,"state":null,"country":null,"city":null,"address":null,"dtype":null,"filename":null,"ID":6},"geometry":{"type":"Point","coordinates":[107.500160999969708,12.847063999998252]}},
{"type":"Feature","properties":{"type":"WAYPOINT","ident":"051","Latitude":12.826206999998327,"Longitude":107.52745299997127,"y_proj":1419260.6959899999,"x_proj":774350.66243899998,"comment":"CT42","display":null,"symbol":"Flag, Blue","dist":0.0,"proximity":null,"color":null,"altitude":249.83,"depth":0.0,"time":"2026/09/12 02:40:58","wpt_class":null,"sub_class":null,"attrib":null,"state":null,"country":null,"city":null,"address":null,"dtype":null,"filename":null,"ID":7},"geometry":{"type":"Point","coordinates":[107.527452999967892,12.82620699999813]}},
{"type":"Feature","properties":{"type":"WAYPOINT","ident":"052","Latitude":12.838378999998371,"Longitude":107.51809899997184,"y_proj":1420597.97771,"x_proj":773321.54834400001,"comment":"CT37","display":null,"symbol":"Flag, Blue","dist":0.0,"proximity":null,"color":null,"altitude":237.52,"depth":0.0,"time":"2026/09/12 03:52:43","wpt_class":null,"sub_class":null,"attrib":null,"state":null,"country":null,"city":null,"address":null,"dtype":null,"filename":null,"ID":8},"geometry":{"type":"Point","coordinates":[107.518098999968544,12.838378999998177]}},
{"type":"Feature","properties":{"type":"WAYPOINT","ident":"053","Latitude":12.838179999998378,"Longitude":107.51249599997215,"y_proj":1420570.01229,"x_proj":772713.24344200001,"comment":"CT36","display":null,"symbol":"Flag, Blue","dist":0.0,"proximity":null,"color":null,"altitude":226.53,"depth":0.0,"time":"2026/09/12 04:19:51","wpt_class":null,"sub_class":null,"attrib":null,"state":null,"country":null,"city":null,"address":null,"dtype":null,"filename":null,"ID":9},"geometry":{"type":"Point","coordinates":[107.512495999968891,12.838179999998191]}},
{"type":"Feature","properties":{"type":"WAYPOINT","ident":"054","Latitude":12.832540999998384,"Longitude":107.51304799997207,"y_proj":1419946.4643099997,"x_proj":772779.27927000006,"comment":"CT39","display":null,"symbol":"Flag, Blue","dist":0.0,"proximity":null,"color":null,"altitude":231.15,"depth":0.0,"time":"2026/09/12 05:08:18","wpt_class":null,"sub_class":null,"attrib":null,"state":null,"country":null,"city":null,"address":null,"dtype":null,"filename":null,"ID":10},"geometry":{"type":"Point","coordinates":[107.513047999968833,12.832540999998196]}},
{"type":"Feature","properties":{"type":"WAYPOINT","ident":"058","Latitude":12.815174999998288,"Longitude":107.53658999997073,"y_proj":1418049.3817499999,"x_proj":775355.05891100003,"comment":"CT43","display":null,"symbol":"Flag, Blue","dist":0.0,"proximity":null,"color":null,"altitude":249.17,"depth":0.0,"time":"2026/09/13 04:15:18","wpt_class":null,"sub_class":null,"attrib":null,"state":null,"country":null,"city":null,"address":null,"dtype":null,"filename":null,"ID":11},"geometry":{"type":"Point","coordinates":[107.536589999967248,12.815174999998085]}},
{"type":"Feature","properties":{"type":"WAYPOINT","ident":"059","Latitude":12.804698999998267,"Longitude":107.54274799997035,"y_proj":1416896.4413699999,"x_proj":776035.34476999997,"comment":"CT45","display":null,"symbol":"Flag, Blue","dist":0.0,"proximity":null,"color":null,"altitude":258.47,"depth":0.0,"time":"2026/09/13 04:43:10","wpt_class":null,"sub_class":null,"attrib":null,"state":null,"country":null,"city":null,"address":null,"dtype":null,"filename":null,"ID":12},"geometry":{"type":"Point","coordinates":[107.542747999966792,12.80469899999806]}},
{"type":"Feature","properties":{"type":"WAYPOINT","ident":"060","Latitude":12.801078999998239,"Longitude":107.54998199996992,"y_proj":1416503.5099200001,"x_proj":776825.07706899999,"comment":"CT46","display":null,"symbol":"Flag, Blue","dist":0.0,"proximity":null,"color":null,"altitude":259.49,"depth":0.0,"time":"2026/09/13 05:56:41","wpt_class":null,"sub_class":null,"attrib":null,"state":null,"country":null,"city":null,"address":null,"dtype":null,"filename":null,"ID":13},"geometry":{"type":"Point","coordinates":[107.549981999966292,12.801078999998024]}},
{"type":"Feature","properties":{"type":"WAYPOINT","ident":"061","Latitude":12.796215999998244,"Longitude":107.54785499997003,"y_proj":1415962.9753300003,"x_proj":776599.33830599999,"comment":"CT47","display":null,"symbol":"Flag, Blue","dist":0.0,"proximity":null,"color":null,"altitude":262.06,"depth":0.0,"time":"2026/09/13 06:17:10","wpt_class":null,"sub_class":null,"attrib":null,"state":null,"country":null,"city":null,"address":null,"dtype":null,"filename":null,"ID":14},"geometry":{"type":"Point","coordinates":[107.547854999966404,12.796215999998035]}},
{"type":"Feature","properties":{"type":"WAYPOINT","ident":"062","Latitude":12.77434499999829,"Longitude":107.53716499997059,"y_proj":1413530.8079599999,"x_proj":775461.86161699996,"comment":"CT59","display":null,"symbol":"Flag, Blue","dist":0.0,"proximity":null,"color":null,"altitude":269.43,"depth":0.0,"time":"2026/09/13 06:57:43","wpt_class":null,"sub_class":null,"attrib":null,"state":null,"country":null,"city":null,"address":null,"dtype":null,"filename":null,"ID":15},"geometry":{"type":"Point","coordinates":[107.537164999967075,12.774344999998085]}},
{"type":"Feature","properties":{"type":"WAYPOINT","ident":"432","Latitude":13.006139999998547,"Longitude":107.46592799997501,"y_proj":1439110.7087000001,"x_proj":767476.73514200002,"comment":"CT9","display":null,"symbol":"Pizza","dist":0.0,"proximity":null,"color":null,"altitude":189.16,"depth":0.0,"time":"2026/09/08 04:18:26","wpt_class":null,"sub_class":null,"attrib":null,"state":null,"country":null,"city":null,"address":null,"dtype":null,"filename":null,"ID":16},"geometry":{"type":"Point","coordinates":[107.465927999972251,13.006139999998387]}},
{"type":"Feature","properties":{"type":"WAYPOINT","ident":"437","Latitude":12.994087999998564,"Longitude":107.46170099997521,"y_proj":1437772.36708,"x_proj":767030.88138899999,"comment":"CT10","display":null,"symbol":"Pizza","dist":0.0,"proximity":null,"color":null,"altitude":187.01,"depth":0.0,"time":"2026/09/08 06:22:35","wpt_class":null,"sub_class":null,"attrib":null,"state":null,"country":null,"city":null,"address":null,"dtype":null,"filename":null,"ID":17},"geometry":{"type":"Point","coordinates":[107.461700999972479,12.994087999998406]}},
{"type":"Feature","properties":{"type":"WAYPOINT","ident":"441","Latitude":12.983993999998628,"Longitude":107.44397999997604,"y_proj":1436636.6656599999,"x_proj":765118.26939599996,"comment":"CT13","display":null,"symbol":"Pizza","dist":0.0,"proximity":null,"color":null,"altitude":180.33,"depth":0.0,"time":"2026/09/08 08:00:33","wpt_class":null,"sub_class":null,"attrib":null,"state":null,"country":null,"city":null,"address":null,"dtype":null,"filename":null,"ID":18},"geometry":{"type":"Point","coordinates":[107.44397999997345,12.983993999998477]}},
{"type":"Feature","properties":{"type":"WAYPOINT","ident":"442","Latitude":12.972444999998586,"Longitude":107.45732599997535,"y_proj":1435372.3726,"x_proj":766579.13897299999,"comment":"CT12","display":null,"symbol":"Pizza","dist":0.0,"proximity":null,"color":null,"altitude":206.18,"depth":0.0,"time":"2026/09/08 09:24:20","wpt_class":null,"sub_class":null,"attrib":null,"state":null,"country":null,"city":null,"address":null,"dtype":null,"filename":null,"ID":19},"geometry":{"type":"Point","coordinates":[107.457325999972653,12.972444999998427]}},
{"type":"Feature","properties":{"type":"WAYPOINT","ident":"444","Latitude":12.923742999998542,"Longitude":107.46831199997469,"y_proj":1429993.60772,"x_proj":767823.66877999995,"comment":"CT49","display":null,"symbol":"Pizza","dist":0.0,"proximity":null,"color":null,"altitude":181.88,"depth":0.0,"time":"2026/09/10 02:22:31","wpt_class":null,"sub_class":null,"attrib":null,"state":null,"country":null,"city":null,"address":null,"dtype":null,"filename":null,"ID":20},"geometry":{"type":"Point","coordinates":[107.468311999971874,12.923742999998382]}},
{"type":"Feature","properties":{"type":"WAYPOINT","ident":"446","Latitude":12.902147999998485,"Longitude":107.48438499997383,"y_proj":1427620.3566699999,"x_proj":769591.82854200003,"comment":"CT62","display":null,"symbol":"Pizza","dist":0.0,"proximity":null,"color":null,"altitude":190.5,"depth":0.0,"time":"2026/09/10 03:45:48","wpt_class":null,"sub_class":null,"attrib":null,"state":null,"country":null,"city":null,"address":null,"dtype":null,"filename":null,"ID":21},"geometry":{"type":"Point","coordinates":[107.484384999970871,12.902147999998318]}},
{"type":"Feature","properties":{"type":"WAYPOINT","ident":"447","Latitude":12.89383799999848,"Longitude":107.48658599997368,"y_proj":1426702.92353,"x_proj":769839.72056100005,"comment":"CT22","display":null,"symbol":"Pizza","dist":0.0,"proximity":null,"color":null,"altitude":227.76,"depth":0.0,"time":"2026/09/10 04:23:29","wpt_class":null,"sub_class":null,"attrib":null,"state":null,"country":null,"city":null,"address":null,"dtype":null,"filename":null,"ID":22},"geometry":{"type":"Point","coordinates":[107.4865859999707,12.893837999998306]}},
{"type":"Feature","properties":{"type":"WAYPOINT","ident":"463","Latitude":12.855541999998534,"Longitude":107.47091199997442,"y_proj":1422447.9404200001,"x_proj":768178.60246199998,"comment":"CT28","display":null,"symbol":"Pizza","dist":0.0,"proximity":null,"color":null,"altitude":238.05,"depth":0.0,"time":"2026/09/11 05:17:50","wpt_class":null,"sub_class":null,"attrib":null,"state":null,"country":null,"city":null,"address":null,"dtype":null,"filename":null,"ID":23},"geometry":{"type":"Point","coordinates":[107.470911999971548,12.855541999998371]}},
{"type":"Feature","properties":{"type":"WAYPOINT","ident":"464","Latitude":12.854011999998525,"Longitude":107.47539299997416,"y_proj":1422283.2783900001,"x_proj":768666.84755299997,"comment":"CT29","display":null,"symbol":"Pizza","dist":0.0,"proximity":null,"color":null,"altitude":242.13,"depth":0.0,"time":"2026/09/11 06:32:29","wpt_class":null,"sub_class":null,"attrib":null,"state":null,"country":null,"city":null,"address":null,"dtype":null,"filename":null,"ID":24},"geometry":{"type":"Point","coordinates":[107.475392999971262,12.854011999998356]}},
{"type":"Feature","properties":{"type":"WAYPOINT","ident":"470","Latitude":12.857946999998411,"Longitude":107.50477599997264,"y_proj":1422749.6789800001,"x_proj":771853.526098,"comment":"CT32","display":null,"symbol":"Pizza","dist":0.0,"proximity":null,"color":null,"altitude":230.18,"depth":0.0,"time":"2026/09/12 03:03:40","wpt_class":null,"sub_class":null,"attrib":null,"state":null,"country":null,"city":null,"address":null,"dtype":null,"filename":null,"ID":25},"geometry":{"type":"Point","coordinates":[107.504775999969482,12.857946999998227]}},
{"type":"Feature","properties":{"type":"WAYPOINT","ident":"471","Latitude":12.863192999998546,"Longitude":107.46917599997452,"y_proj":1423292.93028,"x_proj":767981.95412899996,"comment":"CT26 K583","display":null,"symbol":"Pizza","dist":0.0,"proximity":null,"color":null,"altitude":232.59,"depth":0.0,"time":"2026/09/12 23:58:24","wpt_class":null,"sub_class":null,"attrib":null,"state":null,"country":null,"city":null,"address":null,"dtype":null,"filename":null,"ID":26},"geometry":{"type":"Point","coordinates":[107.469175999971668,12.863192999998381]}},
{"type":"Feature","properties":{"type":"WAYPOINT","ident":"009","Latitude":13.014832999998609,"Longitude":107.44851199997588,"y_proj":1440054.57549,"x_proj":765577.33229599998,"comment":"CT8","display":null,"symbol":"Flag, Blue","dist":0.0,"proximity":null,"color":null,"altitude":190.88,"depth":0.0,"time":"2026/09/08 04:42:32","wpt_class":null,"sub_class":null,"attrib":null,"state":null,"country":null,"city":null,"address":null,"dtype":null,"filename":null,"ID":27},"geometry":{"type":"Point","coordinates":[107.448511999973277,13.014832999998456]}},
{"type":"Feature","properties":{"type":"WAYPOINT","ident":"010","Latitude":13.040249999998659,"Longitude":107.43396799997666,"y_proj":1442852.4925599999,"x_proj":763972.00457700004,"comment":"CT6","display":null,"symbol":"Flag, Blue","dist":0.0,"proximity":null,"color":null,"altitude":175.52,"depth":0.0,"time":"2026/09/08 05:48:52","wpt_class":null,"sub_class":null,"attrib":null,"state":null,"country":null,"city":null,"address":null,"dtype":null,"filename":null,"ID":28},"geometry":{"type":"Point","coordinates":[107.433967999974172,13.040249999998512]}},
{"type":"Feature","properties":{"type":"WAYPOINT","ident":"011","Latitude":13.039718999998607,"Longitude":107.44704599997603,"y_proj":1442807.3701899999,"x_proj":765391.70238100004,"comment":"CT7","display":null,"symbol":"Flag, Blue","dist":0.0,"proximity":null,"color":null,"altitude":166.72,"depth":0.0,"time":"2026/09/08 06:28:39","wpt_class":null,"sub_class":null,"attrib":null,"state":null,"country":null,"city":null,"address":null,"dtype":null,"filename":null,"ID":29},"geometry":{"type":"Point","coordinates":[107.44704599997344,13.039718999998458]}},
{"type":"Feature","properties":{"type":"WAYPOINT","ident":"013","Latitude":12.905632999998547,"Longitude":107.46787599997469,"y_proj":1427988.76327,"x_proj":767795.64200899994,"comment":"CT19","display":null,"symbol":"Flag, Blue","dist":0.0,"proximity":null,"color":null,"altitude":187.89,"depth":0.0,"time":"2026/09/10 00:42:01","wpt_class":null,"sub_class":null,"attrib":null,"state":null,"country":null,"city":null,"address":null,"dtype":null,"filename":null,"ID":30},"geometry":{"type":"Point","coordinates":[107.467875999971866,12.905632999998385]}},
{"type":"Feature","properties":{"type":"WAYPOINT","ident":"014","Latitude":12.907257999998508,"Longitude":107.4792129999741,"y_proj":1428180.49327,"x_proj":769024.80459099996,"comment":"CT20","display":null,"symbol":"Flag, Blue","dist":0.0,"proximity":null,"color":null,"altitude":188.86,"depth":0.0,"time":"2026/09/10 02:09:47","wpt_class":null,"sub_class":null,"attrib":null,"state":null,"country":null,"city":null,"address":null,"dtype":null,"filename":null,"ID":31},"geometry":{"type":"Point","coordinates":[107.479212999971182,12.90725799999834]}},
{"type":"Feature","properties":{"type":"WAYPOINT","ident":"015","Latitude":12.901822999998489,"Longitude":107.4844289999738,"y_proj":1427584.4320499999,"x_proj":769596.95438400004,"comment":"CT61","display":null,"symbol":"Flag, Blue","dist":0.0,"proximity":null,"color":null,"altitude":198.43,"depth":0.0,"time":"2026/09/10 03:40:29","wpt_class":null,"sub_class":null,"attrib":null,"state":null,"country":null,"city":null,"address":null,"dtype":null,"filename":null,"ID":32},"geometry":{"type":"Point","coordinates":[107.484428999970859,12.901822999998313]}},
{"type":"Feature","properties":{"type":"WAYPOINT","ident":"016","Latitude":12.881406999998475,"Longitude":107.48660999997365,"y_proj":1425327.08868,"x_proj":769855.65306699998,"comment":"CT23","display":null,"symbol":"Flag, Blue","dist":0.0,"proximity":null,"color":null,"altitude":239.61,"depth":0.0,"time":"2026/09/10 04:41:54","wpt_class":null,"sub_class":null,"attrib":null,"state":null,"country":null,"city":null,"address":null,"dtype":null,"filename":null,"ID":33},"geometry":{"type":"Point","coordinates":[107.486609999970668,12.881406999998305]}},
{"type":"Feature","properties":{"type":"WAYPOINT","ident":"017","Latitude":12.883468999998467,"Longitude":107.49163399997339,"y_proj":1425560.59794,"x_proj":770398.97250300006,"comment":"CT25","display":null,"symbol":"Flag, Blue","dist":0.0,"proximity":null,"color":null,"altitude":231.87,"depth":0.0,"time":"2026/09/10 06:04:42","wpt_class":null,"sub_class":null,"attrib":null,"state":null,"country":null,"city":null,"address":null,"dtype":null,"filename":null,"ID":34},"geometry":{"type":"Point","coordinates":[107.491633999970361,12.883468999998287]}},
{"type":"Feature","properties":{"type":"WAYPOINT","ident":"020","Latitude":12.87464599999849,"Longitude":107.48471099997373,"y_proj":1424576.7886600001,"x_proj":769656.68691399996,"comment":"CT64","display":null,"symbol":"Flag, Blue","dist":0.0,"proximity":null,"color":null,"altitude":245.6,"depth":0.0,"time":"2026/09/10 07:41:22","wpt_class":null,"sub_class":null,"attrib":null,"state":null,"country":null,"city":null,"address":null,"dtype":null,"filename":null,"ID":35},"geometry":{"type":"Point","coordinates":[107.484710999970744,12.874645999998316]}},
{"type":"Feature","properties":{"type":"WAYPOINT","ident":"030","Latitude":12.8342529999984,"Longitude":107.50916299997232,"y_proj":1420131.8404699997,"x_proj":772355.49188700004,"comment":"CT35","display":null,"symbol":"Flag, Blue","dist":0.0,"proximity":null,"color":null,"altitude":264.16,"depth":0.0,"time":"2026/09/12 06:16:53","wpt_class":null,"sub_class":null,"attrib":null,"state":null,"country":null,"city":null,"address":null,"dtype":null,"filename":null,"ID":36},"geometry":{"type":"Point","coordinates":[107.509162999969107,12.834252999998213]}},
{"type":"Feature","properties":{"type":"WAYPOINT","ident":"033","Latitude":12.78931899999832,"Longitude":107.5289919999711,"y_proj":1415179.4795,"x_proj":774557.7931270001,"comment":"CT038","display":null,"symbol":"Flag, Blue","dist":0.0,"proximity":null,"color":null,"altitude":278.86,"depth":0.0,"time":"2026/09/13 06:52:04","wpt_class":null,"sub_class":null,"attrib":null,"state":null,"country":null,"city":null,"address":null,"dtype":null,"filename":null,"ID":37},"geometry":{"type":"Point","coordinates":[107.528991999967673,12.789318999998121]}},
{"type":"Feature","properties":{"type":"WAYPOINT","ident":"035","Latitude":12.797829999998362,"Longitude":107.51917999997167,"y_proj":1416111.08965,"x_proj":773482.75944000005,"comment":"CT44","display":null,"symbol":"Flag, Blue","dist":0.0,"proximity":null,"color":null,"altitude":269.1,"depth":0.0,"time":"2026/09/13 07:22:36","wpt_class":null,"sub_class":null,"attrib":null,"state":null,"country":null,"city":null,"address":null,"dtype":null,"filename":null,"ID":38},"geometry":{"type":"Point","coordinates":[107.519179999968344,12.797829999998172]}},
{"type":"Feature","properties":{"type":"WAYPOINT","ident":"038","Latitude":12.82042299999841,"Longitude":107.50623899997244,"y_proj":1418598.0348799999,"x_proj":772052.79928499996,"comment":"CT40","display":null,"symbol":"Flag, Blue","dist":0.0,"proximity":null,"color":null,"altitude":241.65,"depth":0.0,"time":"2026/09/13 08:06:26","wpt_class":null,"sub_class":null,"attrib":null,"state":null,"country":null,"city":null,"address":null,"dtype":null,"filename":null,"ID":39},"geometry":{"type":"Point","coordinates":[107.506238999969241,12.820422999998225]}},
{"type":"Feature","properties":{"type":"WAYPOINT","ident":"040","Latitude":12.775801999998246,"Longitude":107.54856499996993,"y_proj":1413704.2355299999,"x_proj":776698.72088599997,"comment":"CT48","display":null,"symbol":"Flag, Blue","dist":0.0,"proximity":null,"color":null,"altitude":271.58,"depth":0.0,"time":"2026/09/13 23:44:40","wpt_class":null,"sub_class":null,"attrib":null,"state":null,"country":null,"city":null,"address":null,"dtype":null,"filename":null,"ID":40},"geometry":{"type":"Point","coordinates":[107.548564999966302,12.775801999998036]}},
{"type":"Feature","properties":{"type":null,"ident":null,"Latitude":12.992500459402033,"Longitude":107.48951124054133,"y_proj":1437626.0,"x_proj":770051.0,"comment":"CT11","display":null,"symbol":null,"dist":0.0,"proximity":null,"color":null,"altitude":177.94,"depth":0.0,"time":"2026/09/07 09:58:57","wpt_class":null,"sub_class":null,"attrib":null,"state":null,"country":null,"city":null,"address":null,"dtype":null,"filename":null,"ID":41},"geometry":{"type":"Point","coordinates":[107.489511240538391,12.992500459401857]}}
]
}
