{
"type": "FeatureCollection",
"name": "Study_Area_10km",
"crs": { "type": "name", "properties": { "name": "urn:ogc:def:crs:OGC:1.3:CRS84" } },
"features": [
{"type":"Feature","properties":{"id":null,"Km":null,"Size":null},"geometry":{"type":"MultiPolygon","coordinates":[[[[107.403534798105085,13.06587850706304],[107.406300581252594,13.073281695238531],[107.406500792403349,13.073812434618546],[107.40818139891438,13.07822495745175],[107.410905659835237,13.084322741694196],[107.412492344005869,13.089125182602714],[107.413105455587868,13.090452934064437],[107.413162816765819,13.090576905831657],[107.414039390074748,13.09246759696418],[107.4264658871666,13.121285769768345],[107.426799165230975,13.12204879189019],[107.443608081366108,13.16004274866553],[107.445387646185736,13.164893414996495],[107.447826313743732,13.17086407401502],[107.466042467837369,13.211229261320149],[107.481702894010425,13.234983881408166],[107.504092791629247,13.252833289300181],[107.531020090980277,13.263028803446094],[107.559846886569673,13.264571288402712],[107.587748451261547,13.257309395484942],[107.611990882844779,13.241954516562704],[107.630199758582478,13.220010933063953],[107.640593094991999,13.193628084757512],[107.642155606354351,13.165389610233106],[107.634737279962337,13.138060025411741],[107.617826786565516,13.100647103032896],[107.616155991957939,13.096101747945134],[107.61397860527758,13.090724229727432],[107.596139162417529,13.050465693707448],[107.585429348680734,13.025669635293307],[107.586064091152068,13.021639619862851],[107.586058261660838,13.021605928306874],[107.587717884985636,13.012961483124002],[107.589548488233291,13.010195183217485],[107.589720686638998,13.009780630490113],[107.596098019842657,12.984423395857567],[107.596117509850743,12.984226575201092],[107.595521993993813,12.962033903917181],[107.595473122775999,12.961715530191579],[107.589967379804378,12.942596228947199],[107.590189683338451,12.942147388408838],[107.594247564871679,12.914675910040975],[107.593267257198292,12.908880678361545],[107.594371674843586,12.906958081058045],[107.613693681540823,12.887488878085666],[107.622340074492001,12.879892241513827],[107.626594122125994,12.872855400301512],[107.626756851744602,12.87270559808875],[107.628836805516798,12.86914546202182],[107.636622337460494,12.856265251324739],[107.636802940283062,12.855509131193127],[107.640301553700397,12.849519666803637],[107.643605558617722,12.835268256941191],[107.644220821222305,12.834173989531832],[107.644339941165967,12.833843638634326],[107.644906267295028,12.832304210826932],[107.647518879256253,12.823904225691642],[107.650510734526776,12.817347088303379],[107.651578598970758,12.813656657415832],[107.654774797074253,12.796334197275176],[107.654933122308179,12.794434098061696],[107.652665531057806,12.76584557561349],[107.652328773655356,12.765055564818063],[107.652157948579699,12.756020433143442],[107.640550706965541,12.726594111352739],[107.639100187240373,12.724244504424034],[107.62050053748942,12.702648679480454],[107.596016675315383,12.687750667870459],[107.568044154142711,12.681007481638783],[107.539318687918311,12.683078385129264],[107.512649279960684,12.693760663717288],[107.490644333106673,12.712009468829102],[107.475457150603603,12.736039794439799],[107.468575427092517,12.763500711263942],[107.468922577476803,12.7681638015262],[107.46807651205178,12.771491998711575],[107.457843394202754,12.779462849072846],[107.451901198073699,12.788779956552663],[107.448881618137946,12.790970480513213],[107.447905665280572,12.791882179720492],[107.429189844994838,12.816609018803936],[107.427663281207487,12.821512997097566],[107.424776317686707,12.824923201498931],[107.42333137427245,12.827247551950233],[107.423443765344544,12.827314831303621],[107.417322229488605,12.835649817537227],[107.413215153466709,12.847412418969052],[107.413193836269457,12.847435876074204],[107.401318903578201,12.877696041073451],[107.400670894929959,12.88105211260133],[107.399406315010296,12.90569525356883],[107.400239116784704,12.90928877928552],[107.397482510618374,12.913985555502375],[107.397042727284841,12.915259975327187],[107.395759491179192,12.926273588717374],[107.393276510118767,12.933119703291243],[107.393494392266049,12.945710967366146],[107.392626476382191,12.953157667727071],[107.392688599226432,12.953772428972053],[107.393697581084893,12.957454729989452],[107.393834488520923,12.965368487634812],[107.393998457625997,12.966176943113782],[107.394162864959824,12.966590399395031],[107.3940948758422,12.968191637645347],[107.394144652777015,12.968487436756936],[107.394563276800568,12.969864814681131],[107.394777938935448,12.971266422822827],[107.394823644031931,12.97193720116451],[107.394854199575079,12.972161869045799],[107.395029995384206,12.972912177357104],[107.395142916174123,12.973649466924046],[107.394957973905946,12.975446383847894],[107.395054664152838,12.976635562651271],[107.399479734030791,12.995270508055514],[107.398736958175206,13.000882700301846],[107.398729326635618,13.00166493480749],[107.398784498813342,13.004799433761784],[107.398776285670209,13.004799555529846],[107.398792542141322,13.00585388563403],[107.398805464662829,13.005990595301414],[107.398814655911536,13.006512795165348],[107.398855298786287,13.007416271238995],[107.398939881749214,13.00741261264738],[107.399412788197694,13.012415483323654],[107.397922526929435,13.016647942483136],[107.397896354946766,13.016823827523826],[107.398219589692559,13.026428856446955],[107.397788353374466,13.026403126082675],[107.397706728706567,13.027718275231683],[107.397672303996686,13.038112868633823],[107.397700891798991,13.038628684657608],[107.398001427428298,13.042508051491636],[107.398017953720512,13.042673993686181],[107.398933344241954,13.047638904001797],[107.398972086578013,13.04879020080787],[107.399232199905967,13.049981697598257],[107.399504665113199,13.050737563916488],[107.400687932653653,13.057155029972314],[107.400703571421175,13.057212586617435],[107.40319387199834,13.064959636205383],[107.403443434032297,13.065629376711158],[107.403502963842939,13.065734369107044],[107.403534798105085,13.06587850706304]]]]}}
]
}
